{"type":"FeatureCollection","note":"Schematic. Modern outlines grouped and renamed \u2014 see the header of tools/build-provinces.py.","features":[{"type":"Feature","properties":{"name":"Italia","label":{"no":"Italia","en":"Italy"},"short":{"no":"Italia","en":"Italia"},"side":"caesarian","neighbours":["Gallia","Illyricum","Sicilia"],"labelAt":[42.6,12.6]},"geometry":{"type":"MultiPolygon","coordinates":[[[[12.0,36.7478],[11.948,36.8431],[12.0,36.828],[12.0,36.7478]]],[[[8.3609,39.0387],[8.3668,39.1159],[8.4789,39.0675],[8.4215,38.9687],[8.3609,39.0387]]],[[[9.5625,39.166],[9.0563,39.2392],[8.9666,38.9637],[8.8012,38.9097],[8.5954,38.9643],[8.4182,39.2057],[8.3991,39.4816],[8.5478,39.8392],[8.4078,39.9172],[8.4713,40.2927],[8.1899,40.6516],[8.2242,40.9133],[8.5719,40.8502],[9.2284,41.2571],[9.6153,41.0173],[9.5537,40.9321],[9.7943,40.5562],[9.7542,40.4003],[9.643,40.2684],[9.7067,40.017],[9.5625,39.166]]],[[[13.8712,40.7618],[13.9621,40.7394],[13.8937,40.697],[13.8535,40.7241],[13.8712,40.7618]]],[[[8.224,41.0313],[8.2674,41.0991],[8.3438,41.1016],[8.2057,40.9975],[8.224,41.0313]]],[[[11.7757,46.9861],[12.1694,47.0821],[12.1541,46.9353],[12.3883,46.7026],[13.7,46.5203],[13.6797,46.4629],[13.6371,46.4485],[13.5633,46.4151],[13.4785,46.3692],[13.3995,46.3175],[13.3782,46.2616],[13.3996,46.225],[13.421,46.2123],[13.4498,46.2235],[13.4918,46.2166],[13.5447,46.1966],[13.6325,46.1771],[13.635,46.1578],[13.6166,46.1331],[13.548,46.0891],[13.4864,46.0396],[13.4803,46.0092],[13.4877,45.9871],[13.5092,45.9738],[13.6006,45.9798],[13.614,45.9617],[13.5696,45.8341],[13.5834,45.8124],[13.6635,45.792],[13.7217,45.7613],[13.8312,45.6804],[13.8747,45.6148],[13.8447,45.5929],[13.776,45.582],[13.7198,45.5876],[13.7833,45.6272],[13.6283,45.7709],[13.4651,45.71],[13.2063,45.7714],[13.0303,45.6375],[12.2743,45.446],[12.2257,45.2415],[12.5234,44.968],[12.3845,44.7983],[12.2789,44.8322],[12.2483,44.7225],[12.3963,44.2239],[12.6911,43.9947],[13.5642,43.5713],[14.0104,42.6896],[14.5407,42.2443],[15.1687,41.934],[16.1646,41.8962],[16.1513,41.7585],[15.9138,41.6208],[15.9005,41.5121],[17.955,40.6552],[18.4606,40.221],[18.4858,40.1048],[18.3438,39.8214],[18.0779,39.937],[17.865,40.2802],[17.3958,40.3402],[17.18,40.5028],[16.9282,40.4581],[16.6696,40.1372],[16.5219,39.7476],[16.5978,39.6389],[17.1146,39.3806],[17.1746,38.9981],[16.6167,38.8001],[16.5456,38.4091],[16.2824,38.2496],[16.0568,37.9418],[15.7,37.9687],[15.7,38.262],[15.8224,38.303],[15.927,38.6717],[16.1968,38.7592],[16.21,38.9411],[16.1074,39.0238],[16.0236,39.3536],[15.6928,39.9902],[15.2945,40.07],[14.9509,40.239],[14.9477,40.4693],[14.7657,40.6684],[14.3399,40.5988],[14.4605,40.7287],[14.3089,40.8126],[14.0443,40.8123],[13.7334,41.2356],[13.0887,41.2438],[12.6309,41.4697],[11.807,42.082],[11.6373,42.2875],[11.2963,42.4233],[11.1032,42.4166],[11.1848,42.4566],[11.1678,42.5352],[10.7084,42.9363],[10.5148,42.9675],[10.5208,43.2038],[10.3205,43.5131],[10.1881,43.9475],[9.2894,44.3192],[8.7658,44.4223],[8.552,44.3461],[8.005,43.8768],[7.4932,43.7671],[7.4905,43.8229],[7.482,43.8649],[7.5227,43.9111],[7.5896,43.9654],[7.6515,44.0336],[7.6771,44.0832],[7.665,44.116],[7.6372,44.1648],[7.5994,44.1684],[7.3709,44.1274],[7.3186,44.138],[7.1494,44.2017],[6.9673,44.28],[6.9002,44.3357],[6.8748,44.392],[6.8938,44.4282],[6.8786,44.4633],[6.843,44.5107],[6.8752,44.5646],[6.9319,44.6316],[6.9604,44.6771],[7.0079,44.689],[7.0307,44.7167],[6.9927,44.8273],[6.9729,44.845],[6.9398,44.8587],[6.8894,44.8603],[6.8011,44.8832],[6.7382,44.9214],[6.7247,44.973],[6.6914,45.0226],[6.6348,45.0682],[6.6277,45.118],[6.6923,45.1443],[6.7804,45.1453],[6.8423,45.1356],[6.9813,45.2156],[7.0324,45.2226],[7.0783,45.2399],[7.1168,45.349],[7.1464,45.3817],[7.1534,45.4009],[7.1261,45.4237],[7.0137,45.5005],[6.9624,45.5806],[6.8814,45.6704],[6.8063,45.71],[6.7909,45.7409],[6.7892,45.7801],[6.8045,45.8146],[6.9408,45.8684],[7.0211,45.9258],[7.0558,45.9038],[7.129,45.8804],[7.3279,45.9124],[7.4516,45.9444],[7.5386,45.9782],[7.5926,45.9722],[7.7879,45.9218],[7.8523,45.9475],[7.9932,46.0159],[8.0143,46.0519],[8.1252,46.1609],[8.1272,46.1876],[8.0815,46.256],[8.0957,46.271],[8.2319,46.3412],[8.2985,46.4034],[8.3707,46.4451],[8.4226,46.446],[8.4368,46.4319],[8.443,46.4028],[8.4385,46.2829],[8.4584,46.2459],[8.5654,46.1598],[8.6417,46.1108],[8.8186,46.0771],[8.8268,46.061],[8.778,45.9962],[8.8852,45.9187],[8.9043,45.862],[8.9537,45.83],[9.0237,45.8457],[9.0467,45.8756],[9.0191,45.9281],[8.9989,45.9831],[9.003,46.0149],[9.0224,46.0515],[9.071,46.1024],[9.2034,46.2192],[9.2511,46.2868],[9.2598,46.3913],[9.2602,46.4752],[9.3044,46.4956],[9.3993,46.4807],[9.4276,46.4823],[9.4406,46.4308],[9.4811,46.3488],[9.5287,46.3062],[9.5796,46.2961],[9.6395,46.2959],[9.7878,46.346],[9.8845,46.3678],[9.9393,46.3618],[9.9717,46.3277],[10.041,46.2381],[10.0806,46.228],[10.1283,46.2382],[10.1452,46.2535],[10.1299,46.288],[10.1097,46.3628],[10.0819,46.4208],[10.0456,46.4479],[10.0383,46.4832],[10.0612,46.5468],[10.087,46.5999],[10.1375,46.6144],[10.1955,46.6211],[10.2723,46.5648],[10.3631,46.5471],[10.4307,46.55],[10.4425,46.5829],[10.4383,46.6188],[10.3979,46.665],[10.4061,46.7349],[10.4528,46.8649],[10.7598,46.7933],[10.9933,46.777],[11.2444,46.9757],[11.7757,46.9861]]],[[[10.3951,42.8582],[10.4193,42.7132],[10.3356,42.7611],[10.1312,42.742],[10.1098,42.7851],[10.3951,42.8582]]]]}},{"type":"Feature","properties":{"name":"Hispania","label":{"no":"Hispania","en":"Hispania"},"short":{"no":"Hisp.","en":"Hisp."},"side":"caesarian","neighbours":["Gallia"]},"geometry":{"type":"MultiPolygon","coordinates":[[[[-18.1605,27.7615],[-17.9245,27.8501],[-17.8879,27.8096],[-17.9848,27.6464],[-18.1605,27.7615]]],[[[-17.3249,28.1177],[-17.2903,28.1763],[-17.2144,28.1993],[-17.1011,28.0834],[-17.2254,28.0135],[-17.3249,28.1177]]],[[[-18.0008,28.7583],[-17.9288,28.8446],[-17.7976,28.8468],[-17.7266,28.7245],[-17.8594,28.4857],[-18.0008,28.7583]]],[[[-25.0829,37.024],[-25.0315,36.9416],[-25.1599,36.9434],[-25.1635,37.0186],[-25.0829,37.024]]],[[[-25.7345,37.7629],[-25.8459,37.894],[-25.1819,37.8379],[-25.1907,37.7644],[-25.7345,37.7629]]],[[[-28.0648,38.4127],[-28.3324,38.4129],[-28.4545,38.4086],[-28.5488,38.5186],[-28.4021,38.5534],[-28.0648,38.4127]]],[[[-28.6554,38.6141],[-28.6413,38.525],[-28.842,38.5984],[-28.6978,38.6385],[-28.6554,38.6141]]],[[[-27.7785,38.5556],[-28.3106,38.7439],[-27.9626,38.6363],[-27.7785,38.5556]]],[[[-27.127,38.7898],[-27.042,38.6789],[-27.3028,38.661],[-27.351,38.789],[-27.127,38.7898]]],[[[-31.1386,39.4794],[-31.1813,39.3589],[-31.283,39.3941],[-31.2608,39.4968],[-31.1386,39.4794]]],[[[-15.4006,28.1474],[-15.4368,27.8107],[-15.6558,27.7584],[-15.8073,27.8875],[-15.6828,28.1541],[-15.4006,28.1474]]],[[[-16.4962,28.0619],[-16.658,28.0072],[-16.9053,28.3396],[-16.1236,28.576],[-16.3345,28.3799],[-16.4962,28.0619]]],[[[-13.928,28.2535],[-14.3326,28.056],[-14.4918,28.1009],[-14.232,28.2158],[-14.0034,28.7067],[-13.8572,28.738],[-13.8276,28.5852],[-13.928,28.2535]]],[[[-13.7882,29.0561],[-13.6501,29.119],[-13.4636,29.2372],[-13.4229,29.1975],[-13.4779,29.0066],[-13.8599,28.8691],[-13.7882,29.0561]]],[[[-16.6933,32.758],[-16.7653,32.7097],[-17.0183,32.6628],[-17.241,32.8074],[-17.1909,32.8686],[-16.9292,32.8414],[-16.6933,32.758]]],[[[1.402,38.7114],[1.4363,38.7682],[1.5939,38.6721],[1.4058,38.671],[1.402,38.7114]]],[[[1.2233,38.9039],[1.2998,38.9817],[1.3486,39.0808],[1.6132,39.0874],[1.409,38.8573],[1.2233,38.9039]]],[[[2.7006,39.5421],[2.4995,39.4779],[2.37,39.5721],[2.785,39.8548],[3.1587,39.9705],[3.1453,39.7901],[3.4489,39.7612],[3.2447,39.3866],[3.0729,39.3013],[2.7998,39.3851],[2.7006,39.5421]]],[[[-8.879,37.9587],[-8.8022,38.1838],[-8.8811,38.4467],[-8.6683,38.4243],[-8.7989,38.5182],[-9.2133,38.4481],[-9.2504,38.6567],[-9.0215,38.7469],[-8.9381,38.9981],[-8.7916,39.0782],[-8.9543,39.0161],[-9.1358,38.7428],[-9.4741,38.7309],[-9.3748,39.3383],[-9.1483,39.5426],[-8.8378,40.1157],[-8.8727,40.2591],[-8.6556,41.0295],[-8.8057,41.56],[-8.7554,41.6984],[-8.8876,41.7646],[-8.7771,41.9411],[-8.8783,41.9469],[-8.8872,42.1053],[-8.6909,42.2742],[-8.8158,42.2853],[-8.73,42.4117],[-8.8121,42.4701],[-8.8115,42.6403],[-9.0331,42.5938],[-8.9272,42.7986],[-9.2352,42.9769],[-9.1781,43.174],[-8.8737,43.3344],[-8.3555,43.3968],[-8.2489,43.4394],[-8.2567,43.5799],[-7.6981,43.7646],[-7.061,43.554],[-5.8467,43.6451],[-4.523,43.4157],[-3.6046,43.5195],[-3.0456,43.3716],[-2.875,43.4544],[-2.3371,43.328],[-1.794,43.4073],[-1.7927,43.3726],[-1.7533,43.3247],[-1.7128,43.307],[-1.6271,43.2825],[-1.5615,43.2792],[-1.4717,43.2677],[-1.4107,43.2401],[-1.4073,43.1971],[-1.4226,43.1491],[-1.4594,43.105],[-1.4805,43.0711],[-1.4608,43.0518],[-1.4288,43.0368],[-1.394,43.0326],[-1.3705,43.0376],[-1.3527,43.0643],[-1.3188,43.097],[-1.3,43.101],[-1.3016,43.0825],[-1.2854,43.0596],[-1.1754,43.0211],[-0.9338,42.9495],[-0.8392,42.9482],[-0.7626,42.9398],[-0.7402,42.9095],[-0.5864,42.799],[-0.5498,42.802],[-0.4812,42.7993],[-0.3984,42.8081],[-0.3386,42.8288],[-0.2993,42.8253],[-0.2561,42.804],[-0.2053,42.7853],[-0.14,42.7489],[-0.0815,42.7039],[-0.0412,42.6891],[0.2014,42.7193],[0.2555,42.6929],[0.3129,42.6933],[0.3772,42.7001],[0.5177,42.6863],[0.6316,42.6896],[0.642,42.7006],[0.6518,42.8004],[0.6698,42.8357],[0.6969,42.8451],[0.7645,42.838],[1.0101,42.779],[1.1111,42.742],[1.2083,42.7131],[1.2933,42.71],[1.3494,42.6907],[1.4283,42.5959],[1.4488,42.4375],[1.7061,42.5033],[1.8598,42.4571],[1.9279,42.4263],[1.9515,42.3928],[1.9865,42.3585],[2.0327,42.3535],[2.0983,42.3861],[2.2004,42.4209],[2.3744,42.3903],[2.568,42.3458],[2.6517,42.3405],[2.6548,42.3621],[2.67,42.393],[2.7019,42.4085],[2.7494,42.413],[2.8156,42.4292],[2.8914,42.4561],[2.97,42.4672],[3.0526,42.4472],[3.1521,42.431],[3.2114,42.4312],[3.3067,42.289],[3.1664,42.2565],[3.1504,42.1625],[3.248,41.9442],[3.0049,41.7674],[2.3109,41.4665],[2.0826,41.2874],[1.0329,41.0621],[0.7146,40.8229],[0.8911,40.7224],[0.5961,40.6145],[-0.327,39.5199],[-0.2049,39.0626],[0.2016,38.7592],[-0.5208,38.3173],[-0.8146,37.7699],[-0.7216,37.6311],[-1.3275,37.5611],[-1.641,37.387],[-2.1115,36.7767],[-2.4528,36.8312],[-2.7875,36.7147],[-4.3668,36.7181],[-4.6741,36.5064],[-5.1715,36.4238],[-5.3609,36.1349],[-5.6255,36.0259],[-6.0407,36.1884],[-6.2689,36.5967],[-6.3841,36.637],[-6.4123,36.7289],[-6.2168,36.9136],[-6.3962,36.8316],[-6.8846,37.1942],[-6.8638,37.2789],[-6.9747,37.1984],[-7.4936,37.1683],[-7.9397,37.0054],[-8.5977,37.1213],[-8.9978,37.0323],[-8.8142,37.4308],[-8.7918,37.7328],[-8.879,37.9587]]],[[[3.8454,40.0365],[4.2258,40.0324],[4.3221,39.8975],[4.2753,39.8303],[3.8672,39.9587],[3.8454,40.0365]]]]}},{"type":"Feature","properties":{"name":"Gallia","label":{"no":"Gallia","en":"Gaul"},"short":{"no":"Gal.","en":"Gaul"},"side":"caesarian","neighbours":["Hispania","Italia"],"labelAt":[46.8,2.5]},"geometry":{"type":"MultiPolygon","coordinates":[[[[55.6619,-20.9062],[55.8391,-21.1386],[55.7974,-21.3394],[55.6562,-21.369],[55.3104,-21.2174],[55.25,-21.0024],[55.4505,-20.8651],[55.6619,-20.9062]]],[[[45.2231,-12.7521],[45.1803,-12.9768],[45.0877,-12.9585],[45.0883,-12.8351],[45.0426,-12.7013],[45.0924,-12.653],[45.2231,-12.7521]]],[[[-52.9035,2.2115],[-53.2298,2.2049],[-53.3344,2.3397],[-53.509,2.2531],[-53.7678,2.3548],[-54.1301,2.121],[-54.6163,2.3268],[-54.402,2.4615],[-54.1955,2.8179],[-54.2031,3.1382],[-53.9905,3.5896],[-54.3507,4.0541],[-54.4733,4.9147],[-54.3316,5.1874],[-54.0853,5.4118],[-53.9199,5.769],[-52.8993,5.425],[-52.2905,4.9422],[-52.3246,4.7709],[-52.22,4.8628],[-52.0581,4.7174],[-51.9619,4.5144],[-52.0029,4.3523],[-51.8275,4.6357],[-51.6533,4.1388],[-51.8053,3.9299],[-52.3279,3.1817],[-52.583,2.5289],[-52.9035,2.2115]]],[[[-61.1808,14.8719],[-60.9271,14.7552],[-60.8263,14.4945],[-60.8621,14.4263],[-61.0637,14.4671],[-61.0113,14.6019],[-61.1411,14.6524],[-61.2197,14.8044],[-61.1808,14.8719]]],[[[-61.2753,15.9962],[-61.2124,15.9599],[-61.2305,15.8899],[-61.3107,15.8947],[-61.2753,15.9962]]],[[[-61.5896,16.0069],[-61.6705,15.9621],[-61.7594,16.0621],[-61.7671,16.3405],[-61.5523,16.2709],[-61.5896,16.0069]]],[[[-61.5222,16.228],[-61.5006,16.3602],[-61.4712,16.5066],[-61.1726,16.2561],[-61.5222,16.228]]],[[[8.8075,41.5884],[8.8868,41.7007],[8.718,41.7614],[8.7404,41.9251],[8.6219,41.9307],[8.701,42.0956],[8.5878,42.1608],[8.5662,42.2188],[8.6755,42.284],[8.5656,42.3577],[8.8148,42.6079],[9.1379,42.7329],[9.3134,42.7132],[9.3632,43.0174],[9.4633,42.981],[9.4542,42.6586],[9.5262,42.5526],[9.5507,42.1297],[9.1861,41.3849],[8.8075,41.5884]]],[[[-1.3889,46.033],[-1.1783,45.9041],[-1.2136,45.8166],[-1.3687,45.9677],[-1.3889,46.033]]],[[[6.1159,43.0724],[5.4065,43.2285],[5.3202,43.3449],[5.0731,43.3666],[5.0598,43.4445],[4.7121,43.3733],[4.2242,43.4796],[4.0526,43.5931],[3.9108,43.5631],[3.2589,43.1932],[3.0518,42.9151],[3.0909,42.5909],[3.2114,42.4312],[3.1521,42.431],[3.0526,42.4472],[2.97,42.4672],[2.8914,42.4561],[2.8156,42.4292],[2.7494,42.413],[2.7019,42.4085],[2.67,42.393],[2.6548,42.3621],[2.6517,42.3405],[2.568,42.3458],[2.3744,42.3903],[2.2004,42.4209],[2.0983,42.3861],[2.0327,42.3535],[1.9865,42.3585],[1.9515,42.3928],[1.9279,42.4263],[1.8598,42.4571],[1.7061,42.5033],[1.7395,42.5759],[1.5014,42.6427],[1.4283,42.5959],[1.3494,42.6907],[1.2933,42.71],[1.2083,42.7131],[1.1111,42.742],[1.0101,42.779],[0.7645,42.838],[0.6969,42.8451],[0.6698,42.8357],[0.6518,42.8004],[0.642,42.7006],[0.6316,42.6896],[0.5177,42.6863],[0.3772,42.7001],[0.3129,42.6933],[0.2555,42.6929],[0.2014,42.7193],[-0.0412,42.6891],[-0.0815,42.7039],[-0.14,42.7489],[-0.2053,42.7853],[-0.2561,42.804],[-0.2993,42.8253],[-0.3386,42.8288],[-0.3984,42.8081],[-0.4812,42.7993],[-0.5498,42.802],[-0.5864,42.799],[-0.7402,42.9095],[-0.7626,42.9398],[-0.8392,42.9482],[-0.9338,42.9495],[-1.1754,43.0211],[-1.2854,43.0596],[-1.3016,43.0825],[-1.3,43.101],[-1.3188,43.097],[-1.3527,43.0643],[-1.3705,43.0376],[-1.394,43.0326],[-1.4288,43.0368],[-1.4608,43.0518],[-1.4805,43.0711],[-1.4594,43.105],[-1.4226,43.1491],[-1.4073,43.1971],[-1.4107,43.2401],[-1.4717,43.2677],[-1.5615,43.2792],[-1.6271,43.2825],[-1.7128,43.307],[-1.7533,43.3247],[-1.7927,43.3726],[-1.794,43.4073],[-1.4849,43.5638],[-1.2455,44.5599],[-1.077,44.6898],[-1.1529,44.764],[-1.2452,44.6667],[-1.081,45.5324],[-0.8263,45.3807],[-0.6911,45.0935],[-0.5485,45.0006],[-0.7908,45.468],[-1.196,45.7145],[-1.21,45.7709],[-1.0317,45.7411],[-1.1463,46.3114],[-1.7865,46.5148],[-2.0594,46.8103],[-2.0189,47.0376],[-2.1971,47.1629],[-2.0276,47.2736],[-1.7425,47.216],[-1.9754,47.3107],[-2.5031,47.3121],[-2.53,47.3816],[-2.4277,47.4709],[-2.7703,47.5139],[-2.7872,47.6255],[-2.9641,47.6011],[-3.9009,47.8375],[-4.3121,47.8229],[-4.428,47.9689],[-4.6788,48.0395],[-4.3294,48.17],[-4.5771,48.29],[-4.2414,48.3037],[-4.7194,48.3631],[-4.7208,48.5399],[-3.2314,48.8408],[-3.0032,48.7907],[-2.6923,48.5368],[-2.4462,48.6483],[-2.0794,48.645],[-2.0037,48.5821],[-1.9057,48.6971],[-1.8247,48.6305],[-1.3765,48.6526],[-1.5655,48.8055],[-1.5831,49.2024],[-1.8134,49.4901],[-1.8564,49.6838],[-1.2586,49.6802],[-1.1385,49.3879],[-0.1635,49.2968],[0.4169,49.4484],[0.1294,49.5084],[0.1867,49.703],[1.4072,50.0885],[1.5928,50.2522],[1.6096,50.8195],[1.9125,50.9906],[2.4457,51.0665],[3.3501,51.3777],[3.4325,51.2458],[3.5803,51.2862],[3.9021,51.2077],[4.2262,51.3865],[4.404,51.3671],[4.4409,51.4598],[4.634,51.4217],[4.7557,51.4911],[4.848,51.4033],[5.031,51.4691],[5.2142,51.279],[5.4769,51.2851],[5.7965,51.1531],[5.75,50.9502],[5.6395,50.8436],[5.7471,50.7596],[5.9939,50.7504],[6.2359,50.5967],[6.203,50.4991],[6.3409,50.4518],[6.3645,50.3162],[6.1751,50.2327],[6.1083,50.0942],[6.2561,49.8722],[6.4873,49.7985],[6.3443,49.4527],[6.5343,49.3947],[6.7354,49.1606],[7.4506,49.1522],[8.1349,48.9736],[8.1403,48.8864],[7.838,48.636],[7.6166,48.1568],[7.5654,47.6065],[8.4301,47.5921],[8.5705,47.6378],[8.4034,47.6878],[8.5727,47.7756],[8.8812,47.6564],[9.1828,47.6707],[9.6259,47.467],[9.4877,47.0623],[9.8453,47.0074],[10.1335,46.8515],[10.3494,46.9848],[10.4528,46.8649],[10.4061,46.7349],[10.3979,46.665],[10.4383,46.6188],[10.4425,46.5829],[10.4307,46.55],[10.3631,46.5471],[10.2723,46.5648],[10.1955,46.6211],[10.1375,46.6144],[10.087,46.5999],[10.0612,46.5468],[10.0383,46.4832],[10.0456,46.4479],[10.0819,46.4208],[10.1097,46.3628],[10.1299,46.288],[10.1452,46.2535],[10.1283,46.2382],[10.0806,46.228],[10.041,46.2381],[9.9717,46.3277],[9.9393,46.3618],[9.8845,46.3678],[9.7878,46.346],[9.6395,46.2959],[9.5796,46.2961],[9.5287,46.3062],[9.4811,46.3488],[9.4406,46.4308],[9.4276,46.4823],[9.3993,46.4807],[9.3044,46.4956],[9.2602,46.4752],[9.2598,46.3913],[9.2511,46.2868],[9.2034,46.2192],[9.071,46.1024],[9.0224,46.0515],[9.003,46.0149],[8.9989,45.9831],[9.0191,45.9281],[9.0467,45.8756],[9.0237,45.8457],[8.9537,45.83],[8.9043,45.862],[8.8852,45.9187],[8.778,45.9962],[8.8268,46.061],[8.8186,46.0771],[8.6417,46.1108],[8.5654,46.1598],[8.4584,46.2459],[8.4385,46.2829],[8.443,46.4028],[8.4368,46.4319],[8.4226,46.446],[8.3707,46.4451],[8.2985,46.4034],[8.2319,46.3412],[8.0957,46.271],[8.0815,46.256],[8.1272,46.1876],[8.1252,46.1609],[8.0143,46.0519],[7.9932,46.0159],[7.8523,45.9475],[7.7879,45.9218],[7.5926,45.9722],[7.5386,45.9782],[7.4516,45.9444],[7.3279,45.9124],[7.129,45.8804],[7.0558,45.9038],[7.0211,45.9258],[6.9408,45.8684],[6.8045,45.8146],[6.7892,45.7801],[6.7909,45.7409],[6.8063,45.71],[6.8814,45.6704],[6.9624,45.5806],[7.0137,45.5005],[7.1261,45.4237],[7.1534,45.4009],[7.1464,45.3817],[7.1168,45.349],[7.0783,45.2399],[7.0324,45.2226],[6.9813,45.2156],[6.8423,45.1356],[6.7804,45.1453],[6.6923,45.1443],[6.6277,45.118],[6.6348,45.0682],[6.6914,45.0226],[6.7247,44.973],[6.7382,44.9214],[6.8011,44.8832],[6.8894,44.8603],[6.9398,44.8587],[6.9729,44.845],[6.9927,44.8273],[7.0307,44.7167],[7.0079,44.689],[6.9604,44.6771],[6.9319,44.6316],[6.8752,44.5646],[6.843,44.5107],[6.8786,44.4633],[6.8938,44.4282],[6.8748,44.392],[6.9002,44.3357],[6.9673,44.28],[7.1494,44.2017],[7.3186,44.138],[7.3709,44.1274],[7.5994,44.1684],[7.6372,44.1648],[7.665,44.116],[7.6771,44.0832],[7.6515,44.0336],[7.5896,43.9654],[7.5227,43.9111],[7.482,43.8649],[7.4905,43.8229],[7.4932,43.7671],[6.7166,43.3736],[6.5702,43.1991],[6.1159,43.0724]]]]}},{"type":"Feature","properties":{"name":"Illyricum","label":{"no":"Illyricum","en":"Illyricum"},"short":{"no":"Ill.","en":"Ill."},"side":"caesarian","neighbours":["Achaea","Italia","Macedonia"]},"geometry":{"type":"MultiPolygon","coordinates":[[[[15.203,43.9077],[15.1358,43.9073],[14.8913,44.1255],[14.865,44.168],[15.203,43.9077]]],[[[15.0658,44.1577],[15.2311,44.0623],[15.2467,44.0271],[15.1219,44.0933],[15.0658,44.1577]]],[[[15.1626,44.3092],[14.9961,44.4343],[14.9128,44.4858],[14.7419,44.6974],[15.2399,44.3502],[15.1626,44.3092]]],[[[14.6782,44.7699],[14.6604,44.7998],[14.7542,44.8448],[14.8566,44.7148],[14.6782,44.7699]]],[[[14.4804,44.6212],[14.3025,44.9404],[14.2858,45.1446],[14.3582,45.1674],[14.4674,44.9702],[14.4804,44.6212]]],[[[14.4504,45.0792],[14.5711,45.2248],[14.8103,44.9771],[14.687,44.9556],[14.4504,45.0792]]],[[[17.3441,42.7904],[17.4319,42.8004],[17.6078,42.769],[17.7442,42.7003],[17.3441,42.7904]]],[[[17.1698,42.9326],[16.8507,42.8955],[16.6507,42.9966],[16.9711,42.9815],[17.1698,42.9326]]],[[[16.4059,43.1974],[16.5214,43.2292],[17.194,43.1258],[16.6792,43.1231],[16.4059,43.1974]]],[[[14.8933,46.6059],[15.9576,46.6776],[16.0372,46.8448],[16.2836,46.8573],[16.5162,46.4999],[16.8715,46.3393],[17.3106,45.9961],[17.9639,45.7703],[18.4373,45.7673],[18.666,45.9075],[19.2781,46.0029],[19.6135,46.1692],[20.1614,46.1419],[20.775,45.7498],[20.794,45.4679],[21.4902,45.1479],[21.3529,45.009],[21.5323,44.9007],[21.3601,44.8267],[22.0931,44.5419],[22.4977,44.7062],[22.6421,44.651],[22.7344,44.5699],[22.554,44.5403],[22.4945,44.4354],[22.7051,44.2378],[22.6675,44.2202],[22.6266,44.1941],[22.6034,44.1486],[22.5975,44.0753],[22.469,44.018],[22.4208,44.0074],[22.399,43.9695],[22.3654,43.8621],[22.3696,43.7813],[22.3869,43.7401],[22.3948,43.7066],[22.4363,43.6655],[22.4741,43.6022],[22.4991,43.5188],[22.5546,43.4545],[22.697,43.3911],[22.7676,43.3542],[22.8197,43.3007],[22.8596,43.2523],[22.9769,43.188],[22.968,43.142],[22.9423,43.0971],[22.9152,43.076],[22.8568,43.0183],[22.7999,42.9857],[22.7062,42.8839],[22.5581,42.8785],[22.5228,42.8703],[22.4668,42.8425],[22.4393,42.7917],[22.4656,42.7508],[22.4633,42.7095],[22.4362,42.6291],[22.4721,42.5433],[22.5242,42.5039],[22.5324,42.4812],[22.5235,42.441],[22.4457,42.3591],[22.4221,42.3289],[22.344,42.314],[22.3174,42.3217],[22.2771,42.3499],[22.2397,42.3582],[22.1467,42.325],[22.0521,42.3046],[21.9775,42.3201],[21.9041,42.3221],[21.853,42.3084],[21.8146,42.3031],[21.7393,42.2677],[21.6183,42.2421],[21.5625,42.2475],[21.5608,42.2477],[21.3896,42.2198],[21.3317,42.1872],[21.2976,42.1301],[21.2866,42.1004],[21.2563,42.0995],[21.2061,42.129],[21.1425,42.175],[21.0598,42.1713],[20.7781,42.071],[20.7504,42.0184],[20.7441,41.9043],[20.725,41.8735],[20.6949,41.8538],[20.5785,41.8662],[20.5662,41.8737],[20.5531,41.8624],[20.5052,41.7065],[20.5166,41.6271],[20.5162,41.5748],[20.4756,41.5541],[20.4486,41.5213],[20.4924,41.3914],[20.487,41.3361],[20.489,41.2726],[20.5679,41.1278],[20.6145,41.0831],[20.6561,41.0617],[20.7093,40.9284],[20.7408,40.9053],[20.8702,40.9179],[20.9335,40.9031],[20.9586,40.8715],[20.9643,40.8499],[20.9558,40.7753],[20.9879,40.7178],[21.0311,40.6586],[21.0309,40.6225],[21.002,40.5634],[20.9502,40.4944],[20.8816,40.4679],[20.8061,40.4455],[20.77,40.3919],[20.7517,40.3349],[20.7179,40.2927],[20.697,40.2464],[20.6649,40.1518],[20.6574,40.1174],[20.6062,40.0827],[20.5271,40.0685],[20.4561,40.0656],[20.408,40.0495],[20.3837,40.0172],[20.3385,39.9911],[20.3111,39.9794],[20.3113,39.9508],[20.3442,39.8906],[20.3816,39.8418],[20.3824,39.8026],[20.3641,39.7917],[20.3062,39.7967],[20.2938,39.7822],[20.2876,39.7386],[20.2721,39.7012],[20.2482,39.6784],[20.2068,39.6535],[20.1311,39.6616],[20.0598,39.6991],[20.0226,39.7107],[20.0013,39.7094],[19.8519,40.0436],[19.4846,40.21],[19.3223,40.4071],[19.4592,40.4054],[19.3375,40.6638],[19.4612,40.9333],[19.4406,41.4248],[19.5757,41.6404],[19.5775,41.7875],[19.1864,41.9486],[18.8942,42.2495],[18.6329,42.3781],[18.6459,42.4427],[18.5175,42.4329],[17.8238,42.7974],[17.0454,43.0149],[17.2198,43.0259],[17.7236,42.8507],[17.5373,42.9623],[16.9031,43.3924],[16.3939,43.5434],[15.9855,43.5198],[15.9415,43.6566],[15.1858,44.1721],[15.1229,44.2568],[15.471,44.272],[14.9813,44.6029],[14.8952,44.7066],[14.8546,45.081],[14.5505,45.2977],[14.3127,45.3378],[13.9658,44.8356],[13.8607,44.8374],[13.6293,45.1082],[13.5172,45.4818],[13.7198,45.5876],[13.776,45.582],[13.8447,45.5929],[13.8747,45.6148],[13.8312,45.6804],[13.7217,45.7613],[13.6635,45.792],[13.5834,45.8124],[13.5696,45.8341],[13.614,45.9617],[13.6006,45.9798],[13.5092,45.9738],[13.4877,45.9871],[13.4803,46.0092],[13.4864,46.0396],[13.548,46.0891],[13.6166,46.1331],[13.635,46.1578],[13.6325,46.1771],[13.5447,46.1966],[13.4918,46.2166],[13.4498,46.2235],[13.421,46.2123],[13.3996,46.225],[13.3782,46.2616],[13.3995,46.3175],[13.4785,46.3692],[13.5633,46.4151],[13.6371,46.4485],[13.6797,46.4629],[13.7,46.5203],[14.5498,46.3997],[14.8933,46.6059]]],[[[16.4281,43.3434],[16.6016,43.3819],[16.8913,43.3146],[16.6274,43.2681],[16.4281,43.3434]]],[[[15.27,44.0107],[15.3714,43.9738],[15.4372,43.8995],[15.3742,43.9148],[15.27,44.0107]]]]}},{"type":"Feature","properties":{"name":"Macedonia","label":{"no":"Macedonia","en":"Macedonia"},"short":{"no":"Mac.","en":"Mac."},"side":"antonian","neighbours":["Achaea","Asia","Illyricum"]},"geometry":{"type":"Polygon","coordinates":[[[22.6675,44.2202],[22.7051,44.2378],[23.0285,44.078],[22.8683,43.9479],[22.919,43.8345],[23.2246,43.8739],[25.4971,43.6708],[26.2158,44.0073],[27.0869,44.1674],[27.4254,44.0205],[27.8843,43.9874],[28.05,43.8224],[28.222,43.7729],[28.5854,43.7422],[28.5618,43.5013],[28.4654,43.3893],[28.1337,43.3956],[27.9289,43.1861],[27.8889,42.7497],[27.4848,42.4681],[27.7082,42.35],[28.0145,41.969],[27.8792,41.9866],[27.8319,41.9813],[27.8017,41.9565],[27.7389,41.9615],[27.6611,41.9613],[27.5799,41.9329],[27.5349,41.9208],[27.4748,41.9469],[27.3629,42.025],[27.2949,42.0795],[27.2443,42.0933],[27.1934,42.0771],[27.0117,42.0586],[26.9688,42.0269],[26.8849,41.9918],[26.8004,41.9751],[26.6792,41.9633],[26.6153,41.9649],[26.5797,41.9479],[26.5497,41.8967],[26.5293,41.8467],[26.5114,41.8264],[26.3604,41.8016],[26.3272,41.7728],[26.318,41.7447],[26.3209,41.7166],[26.2006,41.7438],[26.1074,41.7257],[26.0855,41.7042],[26.066,41.6732],[26.077,41.6402],[26.1112,41.6082],[26.1436,41.5215],[26.1552,41.4349],[26.1354,41.3857],[26.0664,41.3507],[25.9233,41.3119],[25.785,41.3304],[25.7239,41.315],[25.6215,41.3101],[25.5271,41.2998],[25.3819,41.2644],[25.2512,41.2436],[25.1334,41.3158],[24.9936,41.365],[24.8469,41.3942],[24.7958,41.3729],[24.7737,41.3561],[24.6511,41.42],[24.596,41.4427],[24.5693,41.4674],[24.5183,41.5525],[24.4879,41.5552],[24.3867,41.5235],[24.2895,41.525],[24.2304,41.5308],[24.0561,41.5272],[24.0329,41.4691],[24.0113,41.4601],[23.9735,41.4523],[23.8809,41.456],[23.7623,41.413],[23.6352,41.3868],[23.5358,41.386],[23.4334,41.3987],[23.3721,41.3896],[23.2398,41.385],[23.156,41.3221],[23.0256,41.3256],[22.916,41.3363],[22.8593,41.3374],[22.7839,41.332],[22.7551,41.3127],[22.7248,41.1785],[22.6036,41.1402],[22.4936,41.1185],[22.4008,41.1234],[22.2377,41.1552],[22.1845,41.1586],[22.1389,41.1405],[21.9934,41.131],[21.9295,41.1074],[21.7795,40.9504],[21.6275,40.8963],[21.5758,40.8689],[21.4597,40.9036],[21.4041,40.9072],[21.3237,40.8671],[21.1476,40.8631],[21.1,40.8562],[20.9643,40.8499],[20.9586,40.8715],[20.9335,40.9031],[20.8702,40.9179],[20.7408,40.9053],[20.7093,40.9284],[20.6561,41.0617],[20.6145,41.0831],[20.5679,41.1278],[20.489,41.2726],[20.487,41.3361],[20.4924,41.3914],[20.4486,41.5213],[20.4756,41.5541],[20.5162,41.5748],[20.5166,41.6271],[20.5052,41.7065],[20.5531,41.8624],[20.5662,41.8737],[20.5785,41.8662],[20.6949,41.8538],[20.725,41.8735],[20.7441,41.9043],[20.7504,42.0184],[20.7781,42.071],[21.0598,42.1713],[21.1425,42.175],[21.2061,42.129],[21.2563,42.0995],[21.2866,42.1004],[21.2976,42.1301],[21.3317,42.1872],[21.3896,42.2198],[21.5608,42.2477],[21.5625,42.2475],[21.6183,42.2421],[21.7393,42.2677],[21.8146,42.3031],[21.853,42.3084],[21.9041,42.3221],[21.9775,42.3201],[22.0521,42.3046],[22.1467,42.325],[22.2397,42.3582],[22.2771,42.3499],[22.3174,42.3217],[22.344,42.314],[22.4221,42.3289],[22.4457,42.3591],[22.5235,42.441],[22.5324,42.4812],[22.5242,42.5039],[22.4721,42.5433],[22.4362,42.6291],[22.4633,42.7095],[22.4656,42.7508],[22.4393,42.7917],[22.4668,42.8425],[22.5228,42.8703],[22.5581,42.8785],[22.7062,42.8839],[22.7999,42.9857],[22.8568,43.0183],[22.9152,43.076],[22.9423,43.0971],[22.968,43.142],[22.9769,43.188],[22.8596,43.2523],[22.8197,43.3007],[22.7676,43.3542],[22.697,43.3911],[22.5546,43.4545],[22.4991,43.5188],[22.4741,43.6022],[22.4363,43.6655],[22.3948,43.7066],[22.3869,43.7401],[22.3696,43.7813],[22.3654,43.8621],[22.399,43.9695],[22.4208,44.0074],[22.469,44.018],[22.5975,44.0753],[22.6034,44.1486],[22.6266,44.1941],[22.6675,44.2202]]]}},{"type":"Feature","properties":{"name":"Achaea","label":{"no":"Achaea","en":"Achaea"},"short":{"no":"Ach.","en":"Ach."},"side":"antonian","neighbours":["Asia","Illyricum","Macedonia"]},"geometry":{"type":"MultiPolygon","coordinates":[[[[23.0971,36.2466],[23.0422,36.1464],[22.9108,36.221],[22.9326,36.3687],[23.0971,36.2466]]],[[[24.5357,36.7638],[24.5375,36.705],[24.326,36.6556],[24.3574,36.7443],[24.5357,36.7638]]],[[[24.7632,36.9492],[24.7026,36.9171],[24.671,36.9986],[24.7161,37.0238],[24.7632,36.9492]]],[[[24.4248,37.132],[24.4838,37.2102],[24.5359,37.1677],[24.4865,37.1101],[24.4248,37.132]]],[[[24.3789,37.3141],[24.3697,37.4196],[24.4485,37.4496],[24.4814,37.408],[24.3789,37.3141]]],[[[24.9429,37.4935],[24.9379,37.3897],[24.8962,37.4066],[24.9065,37.5089],[24.9429,37.4935]]],[[[24.356,37.5769],[24.289,37.5283],[24.3204,37.6777],[24.4008,37.649],[24.356,37.5769]]],[[[20.6915,37.9295],[20.9939,37.708],[20.8186,37.6647],[20.6351,37.8231],[20.6915,37.9295]]],[[[24.9622,37.6924],[24.7144,37.8989],[24.7002,37.9617],[24.9563,37.9048],[24.9622,37.6924]]],[[[23.551,37.9259],[23.4353,37.9115],[23.4622,37.9804],[23.5155,37.986],[23.551,37.9259]]],[[[20.6247,38.2679],[20.7889,38.1421],[20.7613,38.0706],[20.5235,38.1066],[20.4521,38.2342],[20.3525,38.1799],[20.5632,38.475],[20.6247,38.2679]]],[[[20.7013,38.4514],[20.7587,38.3294],[20.6464,38.4143],[20.6748,38.4763],[20.7013,38.4514]]],[[[24.3595,38.0186],[24.0401,38.39],[23.6508,38.4431],[23.6174,38.5525],[23.2521,38.8012],[22.8703,38.8705],[23.3127,39.0349],[23.525,38.8135],[23.8782,38.6866],[24.1275,38.6485],[24.2758,38.22],[24.5633,38.1475],[24.5785,38.0202],[24.3595,38.0186]]],[[[20.7148,38.6383],[20.5547,38.5826],[20.5925,38.7602],[20.6941,38.8442],[20.7148,38.6383]]],[[[24.6747,38.8092],[24.541,38.7887],[24.4734,38.9617],[24.5641,38.9422],[24.6747,38.8092]]],[[[21.4041,40.9072],[21.4597,40.9036],[21.5758,40.8689],[21.6275,40.8963],[21.7795,40.9504],[21.9295,41.1074],[21.9934,41.131],[22.1389,41.1405],[22.1845,41.1586],[22.2377,41.1552],[22.4008,41.1234],[22.4936,41.1185],[22.6036,41.1402],[22.7248,41.1785],[22.7551,41.3127],[22.7839,41.332],[22.8593,41.3374],[22.916,41.3363],[23.0256,41.3256],[23.156,41.3221],[23.2398,41.385],[23.3721,41.3896],[23.4334,41.3987],[23.5358,41.386],[23.6352,41.3868],[23.7623,41.413],[23.8809,41.456],[23.9735,41.4523],[24.0113,41.4601],[24.0329,41.4691],[24.0561,41.5272],[24.2304,41.5308],[24.2895,41.525],[24.3867,41.5235],[24.4879,41.5552],[24.5183,41.5525],[24.5693,41.4674],[24.596,41.4427],[24.6511,41.42],[24.7737,41.3561],[24.7958,41.3729],[24.8469,41.3942],[24.9936,41.365],[25.1334,41.3158],[25.2512,41.2436],[25.3819,41.2644],[25.5271,41.2998],[25.6215,41.3101],[25.7239,41.315],[25.785,41.3304],[25.9233,41.3119],[26.0664,41.3507],[26.1354,41.3857],[26.1552,41.4349],[26.1436,41.5215],[26.1112,41.6082],[26.077,41.6402],[26.066,41.6732],[26.0855,41.7042],[26.1074,41.7257],[26.2006,41.7438],[26.3209,41.7166],[26.4105,41.6963],[26.4625,41.6634],[26.495,41.6333],[26.5445,41.6072],[26.5813,41.6013],[26.6098,41.5122],[26.6249,41.4018],[26.6023,41.3542],[26.5364,41.3431],[26.3307,41.2388],[26.3257,41.1433],[26.3284,41.097],[26.3326,41.0643],[26.3541,41.0368],[26.3541,40.9971],[26.3311,40.9545],[26.2412,40.8832],[26.1789,40.8265],[26.1092,40.7497],[26.0697,40.7403],[26.039,40.7268],[25.8557,40.8441],[25.1045,40.9947],[24.793,40.8575],[24.4771,40.9478],[24.0823,40.7241],[23.7628,40.7478],[23.8668,40.4186],[24.2128,40.3278],[24.3434,40.1477],[23.9132,40.3588],[23.7279,40.3297],[23.9675,40.1146],[23.9471,39.9656],[23.6646,40.2238],[23.4263,40.264],[23.4332,40.1154],[23.6741,39.9589],[23.6273,39.9241],[23.3956,39.9898],[23.312,40.2165],[22.8965,40.3999],[22.8514,40.4906],[22.9223,40.5909],[22.6295,40.4956],[22.5922,40.0369],[23.3277,39.1749],[23.1547,39.1015],[23.1617,39.2578],[22.9214,39.3063],[22.839,39.2586],[22.886,39.17],[22.9655,39.0309],[23.0667,39.0379],[22.5691,38.8675],[23.2529,38.6612],[23.684,38.3524],[23.967,38.275],[24.0245,38.1398],[24.0197,37.6777],[23.5018,38.0349],[23.0363,37.8784],[23.1472,37.7953],[23.1976,37.6202],[23.3962,37.5798],[23.4893,37.4402],[23.1615,37.3338],[23.0151,37.4818],[22.775,37.5851],[22.7254,37.5421],[23.0604,36.8535],[23.041,36.6445],[23.1602,36.4481],[22.7172,36.7939],[22.6084,36.7797],[22.4895,36.4469],[22.4277,36.4758],[22.376,36.7019],[22.0805,37.029],[21.9556,36.9901],[21.8924,36.7373],[21.5829,37.081],[21.6789,37.3872],[21.1247,37.8916],[21.4037,38.1967],[21.6584,38.1751],[21.8247,38.3281],[22.9203,37.9583],[22.8932,38.0509],[23.1221,38.0733],[23.1489,38.1761],[22.8344,38.2347],[22.4217,38.4385],[22.3199,38.3568],[21.9653,38.4125],[21.4726,38.3214],[21.3311,38.4873],[21.3033,38.3739],[21.1826,38.3456],[20.7686,38.8744],[20.8932,38.9411],[21.1116,38.8963],[21.1184,39.03],[20.7134,39.0352],[20.3008,39.3271],[20.0013,39.7094],[20.0226,39.7107],[20.0598,39.6991],[20.1311,39.6616],[20.2068,39.6535],[20.2482,39.6784],[20.2721,39.7012],[20.2876,39.7386],[20.2938,39.7822],[20.3062,39.7967],[20.3641,39.7917],[20.3824,39.8026],[20.3816,39.8418],[20.3442,39.8906],[20.3113,39.9508],[20.3111,39.9794],[20.3385,39.9911],[20.3837,40.0172],[20.408,40.0495],[20.4561,40.0656],[20.5271,40.0685],[20.6062,40.0827],[20.6574,40.1174],[20.6649,40.1518],[20.697,40.2464],[20.7179,40.2927],[20.7517,40.3349],[20.77,40.3919],[20.8061,40.4455],[20.8816,40.4679],[20.9502,40.4944],[21.002,40.5634],[21.0309,40.6225],[21.0311,40.6586],[20.9879,40.7178],[20.9558,40.7753],[20.9643,40.8499],[21.1,40.8562],[21.1476,40.8631],[21.3237,40.8671],[21.4041,40.9072]]],[[[23.6661,39.0954],[23.5939,39.2086],[23.7798,39.1144],[23.7352,39.0806],[23.6661,39.0954]]],[[[23.8412,39.1466],[23.9709,39.2677],[23.9397,39.2005],[23.888,39.1583],[23.8412,39.1466]]],[[[19.9261,39.7737],[19.8467,39.6681],[20.0996,39.3766],[19.884,39.4615],[19.6465,39.7671],[19.9261,39.7737]]],[[[24.7742,40.6152],[24.6459,40.5794],[24.5155,40.647],[24.5855,40.7687],[24.7191,40.7863],[24.7742,40.6152]]],[[[24.7213,35.4248],[25.4757,35.3062],[25.7302,35.3486],[25.7913,35.1229],[26.3202,35.3151],[26.2443,35.0447],[26.1656,35.0186],[24.7998,34.9345],[24.7089,35.0891],[23.5616,35.2952],[23.5698,35.5348],[23.6727,35.5139],[23.7369,35.6555],[23.8522,35.5354],[24.166,35.5952],[24.1978,35.5375],[24.109,35.4958],[24.2554,35.4686],[24.3129,35.3638],[24.7213,35.4248]]],[[[27.0707,35.5978],[27.1561,35.7263],[27.2231,35.8205],[27.1572,35.6295],[27.2336,35.4786],[27.1379,35.4091],[27.0707,35.5978]]],[[[27.7187,36.1411],[27.9145,36.3453],[28.2318,36.4336],[28.0878,36.0653],[27.7457,35.911],[27.7187,36.1411]]],[[[25.4359,36.3401],[25.3705,36.3589],[25.3969,36.4653],[25.4824,36.3926],[25.4359,36.3401]]],[[[26.27,36.5469],[26.2698,36.5954],[26.3842,36.6079],[26.4606,36.5854],[26.27,36.5469]]],[[[27.869,36.5827],[27.8383,36.538],[27.7857,36.6075],[27.8625,36.6412],[27.869,36.5827]]],[[[25.3644,36.6583],[25.26,36.7584],[25.2959,36.7892],[25.4069,36.7173],[25.3644,36.6583]]],[[[27.3521,36.8689],[26.9184,36.7259],[27.0611,36.8404],[27.2656,36.9051],[27.3521,36.8689]]],[[[25.8594,36.7904],[25.7432,36.7897],[25.942,36.8866],[26.0645,36.9027],[25.8594,36.7904]]],[[[26.8887,37.0873],[26.9666,37.0521],[27.0401,37.0016],[26.9199,36.9452],[26.8887,37.0873]]],[[[25.5843,37.0393],[25.4567,36.9297],[25.3619,37.0704],[25.5644,37.1851],[25.5843,37.0393]]],[[[25.2789,37.0684],[25.1333,36.9997],[25.1465,37.1074],[25.2351,37.1485],[25.2789,37.0684]]],[[[25.4027,37.4191],[25.3071,37.413],[25.3481,37.5092],[25.4574,37.4471],[25.4027,37.4191]]],[[[25.9824,37.5256],[26.0863,37.6349],[26.3514,37.6743],[26.2049,37.5685],[25.9824,37.5256]]],[[[25.2559,37.5996],[25.1563,37.5451],[25.0394,37.6807],[25.2254,37.6307],[25.2559,37.5996]]],[[[27.0551,37.7093],[26.9781,37.7005],[26.8449,37.6447],[26.5811,37.7237],[26.8244,37.8114],[27.0396,37.77],[27.0551,37.7093]]],[[[25.9985,38.1615],[25.8743,38.2696],[25.9914,38.3535],[25.8513,38.5084],[25.8461,38.574],[26.1604,38.5407],[26.157,38.3029],[25.9985,38.1615]]],[[[26.1079,39.0811],[26.2731,39.1976],[26.0724,39.0956],[25.8441,39.2],[25.9096,39.2875],[26.3478,39.383],[26.584,39.0314],[26.4887,39.0748],[26.5472,38.9941],[26.4688,38.9728],[26.1608,39.0259],[26.1079,39.0811]]],[[[25.2518,39.8544],[25.0622,39.8524],[25.058,39.9997],[25.2857,39.9563],[25.4491,40.0348],[25.357,39.8081],[25.2518,39.8544]]],[[[25.448,40.4828],[25.5686,40.5159],[25.6857,40.4266],[25.5727,40.4004],[25.448,40.4828]]]]}},{"type":"Feature","properties":{"name":"Asia","label":{"no":"Asia","en":"Asia"},"short":{"no":"Asia","en":"Asia"},"side":"antonian","neighbours":["Achaea","Macedonia","Parthia","Syria"],"labelAt":[39.0,32.5]},"geometry":{"type":"MultiPolygon","coordinates":[[[[43.6316,40.929],[43.7227,40.7195],[43.5693,40.4824],[43.7099,40.1665],[43.6662,40.1264],[43.942,40.0231],[44.3996,39.9958],[44.8172,39.6504],[44.7821,39.6511],[44.725,39.6817],[44.5871,39.7686],[44.5167,39.7313],[44.456,39.6667],[44.3894,39.4221],[44.3354,39.396],[44.2404,39.3968],[44.124,39.4052],[44.0439,39.393],[44.0232,39.3774],[44.0338,39.351],[44.0575,39.3108],[44.0743,39.26],[44.0791,39.2183],[44.1213,39.1806],[44.178,39.1448],[44.1806,39.1081],[44.1719,39.0562],[44.1588,39.0167],[44.1445,38.9944],[44.1708,38.9344],[44.2324,38.8632],[44.2717,38.836],[44.257,38.7006],[44.2802,38.6407],[44.2979,38.5578],[44.2908,38.4201],[44.2985,38.3863],[44.3196,38.3747],[44.3758,38.3696],[44.4309,38.3568],[44.4499,38.3342],[44.4496,38.3178],[44.3809,38.2546],[44.3728,38.2097],[44.3489,38.1465],[44.3294,38.1093],[44.268,38.0388],[44.2289,37.9672],[44.2113,37.9081],[44.2229,37.8802],[44.3362,37.8718],[44.3978,37.8292],[44.5612,37.7446],[44.5899,37.7104],[44.5453,37.6582],[44.5461,37.6363],[44.5672,37.6086],[44.5771,37.5602],[44.5731,37.5064],[44.574,37.4354],[44.6041,37.4237],[44.7151,37.3571],[44.7941,37.2904],[44.7968,37.2698],[44.7583,37.2171],[44.7667,37.1563],[44.7651,37.1424],[44.731,37.1653],[44.6693,37.1736],[44.606,37.176],[44.566,37.1583],[44.496,37.1105],[44.402,37.0585],[44.3256,37.0107],[44.2818,36.978],[44.2457,36.9833],[44.2175,37.0119],[44.2017,37.0518],[44.2084,37.2026],[44.1918,37.2499],[44.1562,37.283],[44.1145,37.3019],[44.0646,37.3125],[44.0132,37.3135],[43.94,37.2693],[43.8364,37.2235],[43.6758,37.2272],[43.568,37.2358],[43.5158,37.2445],[43.3067,37.3146],[43.2631,37.3165],[43.1852,37.3449],[43.0925,37.3674],[42.9366,37.3248],[42.8691,37.3349],[42.7746,37.3719],[42.7411,37.3619],[42.6354,37.2493],[42.4559,37.1287],[42.359,37.1086],[42.3129,37.2296],[42.2686,37.2766],[42.2476,37.2822],[42.2027,37.2973],[42.1679,37.2886],[42.0599,37.2061],[41.8868,37.1564],[41.7436,37.1261],[41.5155,37.0892],[41.3396,37.0708],[41.2646,37.0693],[41.1021,37.0859],[40.9589,37.1092],[40.8156,37.1082],[40.7057,37.0977],[40.4504,37.0089],[40.0164,36.8261],[39.6865,36.7386],[39.5015,36.7022],[39.3566,36.6816],[39.1084,36.6806],[38.9064,36.6947],[38.7666,36.6931],[38.6889,36.7151],[38.578,36.7891],[38.4438,36.8623],[38.384,36.8792],[38.3059,36.8934],[38.1917,36.9016],[37.9066,36.7946],[37.818,36.7656],[37.7203,36.7437],[37.5235,36.6783],[37.4363,36.6433],[37.3271,36.6466],[37.1874,36.6559],[37.0662,36.6526],[36.9854,36.7024],[36.9418,36.7584],[36.7766,36.7927],[36.6586,36.8025],[36.6284,36.7777],[36.5969,36.7014],[36.5467,36.5063],[36.5375,36.4574],[36.6414,36.2635],[36.6367,36.234],[36.5624,36.2239],[36.4771,36.2207],[36.4215,36.2035],[36.3754,36.1712],[36.3476,36.0035],[36.2488,35.9727],[36.202,35.9375],[36.1536,35.8339],[36.1273,35.8314],[35.9676,35.9101],[35.8927,35.9166],[35.9569,35.9981],[35.8109,36.3099],[36.1885,36.659],[36.1801,36.8072],[36.0489,36.9106],[35.3932,36.5752],[34.7036,36.8168],[33.6947,36.182],[32.7948,36.0359],[32.3777,36.1836],[32.022,36.5353],[31.2406,36.8217],[30.644,36.8657],[30.4461,36.2699],[30.2316,36.3073],[29.6891,36.1567],[29.2236,36.3245],[28.9696,36.7153],[28.8169,36.6753],[28.3037,36.812],[28.0194,36.6345],[28.084,36.7515],[27.6559,36.6746],[27.4539,36.7122],[28.0054,36.832],[28.2424,37.0291],[27.263,36.9766],[27.3002,37.1269],[27.5351,37.1639],[27.5201,37.2491],[27.2192,37.3892],[27.068,37.6579],[27.2244,37.7254],[27.2324,37.9787],[26.2907,38.2772],[26.4164,38.3679],[26.3778,38.6242],[26.4413,38.6412],[26.5865,38.557],[26.6742,38.3357],[26.7273,38.4186],[26.8614,38.3729],[27.1442,38.452],[26.9068,38.4817],[26.7637,38.7096],[27.0137,38.8869],[26.8149,38.961],[26.8536,39.1156],[26.6818,39.2922],[26.8992,39.5497],[26.1131,39.4674],[26.1813,39.9901],[26.3134,40.025],[26.7381,40.4002],[27.2846,40.4556],[27.4756,40.3199],[27.728,40.3288],[27.8485,40.3817],[27.7318,40.4815],[27.8749,40.5129],[27.9896,40.4895],[27.9626,40.3699],[29.0071,40.3897],[29.0552,40.4242],[28.7879,40.534],[28.958,40.6306],[29.8492,40.7601],[29.3647,40.8093],[29.1139,40.9378],[29.0455,41.0076],[29.1481,41.221],[31.2549,41.1076],[31.458,41.32],[32.3064,41.7296],[33.3813,42.0176],[34.7505,41.9568],[35.0064,42.0633],[35.1549,42.0275],[35.1221,41.8911],[35.2978,41.7285],[35.558,41.634],[36.0518,41.6826],[36.1792,41.4266],[36.4054,41.2746],[36.7777,41.3635],[37.0662,41.1844],[38.3811,40.9245],[39.4264,41.1064],[39.8079,40.9825],[40.2652,40.9613],[41.0836,41.2612],[41.5101,41.5175],[41.8235,41.4324],[41.9258,41.4957],[42.4664,41.4398],[42.6824,41.5857],[43.149,41.3071],[43.2055,41.1992],[43.4023,41.1766],[43.4553,41.0647],[43.6316,40.929]]],[[[25.9771,40.1778],[25.97,40.1363],[25.6689,40.1359],[25.8748,40.2337],[25.9771,40.1778]]],[[[27.9873,41.8549],[28.1979,41.5545],[29.0572,41.2297],[28.9563,41.0082],[28.7804,40.9742],[28.1722,41.0807],[27.9252,40.9906],[27.4994,40.9731],[27.258,40.6874],[26.7721,40.498],[26.2027,40.0754],[26.2538,40.3147],[26.7921,40.6266],[26.1055,40.6113],[26.039,40.7268],[26.0697,40.7403],[26.1092,40.7497],[26.1789,40.8265],[26.2412,40.8832],[26.3311,40.9545],[26.3541,40.9971],[26.3541,41.0368],[26.3326,41.0643],[26.3284,41.097],[26.3257,41.1433],[26.3307,41.2388],[26.5364,41.3431],[26.6023,41.3542],[26.6249,41.4018],[26.6098,41.5122],[26.5813,41.6013],[26.5445,41.6072],[26.495,41.6333],[26.4625,41.6634],[26.4105,41.6963],[26.3209,41.7166],[26.318,41.7447],[26.3272,41.7728],[26.3604,41.8016],[26.5114,41.8264],[26.5293,41.8467],[26.5497,41.8967],[26.5797,41.9479],[26.6153,41.9649],[26.6792,41.9633],[26.8004,41.9751],[26.8849,41.9918],[26.9688,42.0269],[27.0117,42.0586],[27.1934,42.0771],[27.2443,42.0933],[27.2949,42.0795],[27.3629,42.025],[27.4748,41.9469],[27.5349,41.9208],[27.5799,41.9329],[27.6611,41.9613],[27.7389,41.9615],[27.8017,41.9565],[27.8319,41.9813],[27.8792,41.9866],[28.0145,41.969],[27.9873,41.8549]]]]}},{"type":"Feature","properties":{"name":"Syria","label":{"no":"Syria","en":"Syria"},"short":{"no":"Syr.","en":"Syr."},"side":"antonian","neighbours":["Aegyptus","Asia","Parthia"]},"geometry":{"type":"Polygon","coordinates":[[[42.3129,37.2296],[42.359,37.1086],[42.3591,37.095],[42.3501,37.0606],[42.2373,36.9611],[42.084,36.826],[41.974,36.7408],[41.7886,36.5972],[41.6502,36.5664],[41.4168,36.5146],[41.3542,36.4644],[41.296,36.3833],[41.2618,36.2725],[41.2518,36.203],[41.2456,36.0734],[41.3002,35.939],[41.3526,35.81],[41.3594,35.7246],[41.3541,35.6404],[41.3033,35.5506],[41.2483,35.4275],[41.2164,35.2882],[41.1996,35.0274],[41.1992,34.8053],[41.1947,34.769],[41.099,34.6123],[40.987,34.4291],[40.9351,34.3866],[40.6895,34.332],[40.4215,34.1978],[40.122,34.0477],[39.85,33.9114],[39.5645,33.7684],[39.2684,33.62],[39.0567,33.514],[38.7735,33.3722],[38.845,33.1509],[38.9148,32.9347],[38.9874,32.7107],[39.0578,32.4932],[38.9816,32.4726],[39.0414,32.3057],[39.14,32.3312],[39.2475,32.351],[39.2928,32.2438],[39.1454,32.1245],[38.9623,31.9949],[36.9586,31.4915],[37.9801,30.5],[37.6499,30.331],[37.4692,29.9951],[36.7553,29.866],[36.4761,29.4951],[36.0685,29.2005],[34.9508,29.3535],[34.9734,29.555],[34.9043,29.4773],[34.8698,29.5639],[34.7911,29.8121],[34.7351,29.982],[34.6586,30.1915],[34.5297,30.446],[34.5178,30.5074],[34.4899,30.5963],[34.401,30.8278],[34.3285,30.995],[34.2453,31.2083],[34.2125,31.2923],[34.1981,31.3226],[34.6784,31.8957],[35.1086,33.0837],[35.6118,34.0322],[35.6479,34.2482],[35.9779,34.5474],[35.8879,34.9486],[35.9024,35.4207],[35.7645,35.5716],[35.8927,35.9166],[35.9676,35.9101],[36.1273,35.8314],[36.1536,35.8339],[36.202,35.9375],[36.2488,35.9727],[36.3476,36.0035],[36.3754,36.1712],[36.4215,36.2035],[36.4771,36.2207],[36.5624,36.2239],[36.6367,36.234],[36.6414,36.2635],[36.5375,36.4574],[36.5467,36.5063],[36.5969,36.7014],[36.6284,36.7777],[36.6586,36.8025],[36.7766,36.7927],[36.9418,36.7584],[36.9854,36.7024],[37.0662,36.6526],[37.1874,36.6559],[37.3271,36.6466],[37.4363,36.6433],[37.5235,36.6783],[37.7203,36.7437],[37.818,36.7656],[37.9066,36.7946],[38.1917,36.9016],[38.3059,36.8934],[38.384,36.8792],[38.4438,36.8623],[38.578,36.7891],[38.6889,36.7151],[38.7666,36.6931],[38.9064,36.6947],[39.1084,36.6806],[39.3566,36.6816],[39.5015,36.7022],[39.6865,36.7386],[40.0164,36.8261],[40.4504,37.0089],[40.7057,37.0977],[40.8156,37.1082],[40.9589,37.1092],[41.1021,37.0859],[41.2646,37.0693],[41.3396,37.0708],[41.5155,37.0892],[41.7436,37.1261],[41.8868,37.1564],[42.0599,37.2061],[42.1679,37.2886],[42.2027,37.2973],[42.2476,37.2822],[42.2686,37.2766],[42.3129,37.2296]]]}},{"type":"Feature","properties":{"name":"Aegyptus","label":{"no":"Egypt","en":"Egypt"},"short":{"no":"Egypt","en":"Egypt"},"side":"ptolemaic","neighbours":["Cyrenaica","Syria"],"labelAt":[26.5,30.5]},"geometry":{"type":"Polygon","coordinates":[[[34.8698,29.5639],[34.9043,29.4773],[34.7364,29.2706],[34.3997,28.016],[34.2201,27.7643],[33.7603,28.0477],[33.2478,28.5677],[33.1302,28.9783],[32.7215,29.5218],[32.5657,29.974],[32.473,29.9254],[32.3598,29.6307],[32.599,29.3219],[32.6318,28.9922],[32.8982,28.5652],[33.5471,27.8981],[33.5498,27.6074],[33.8493,27.1849],[33.9591,26.649],[34.5651,25.6912],[35.1941,24.4751],[35.7839,23.9378],[35.5408,23.9207],[35.5044,23.7793],[35.5228,23.4425],[35.6979,22.9462],[35.9134,22.7396],[36.2297,22.6288],[36.8714,21.9967],[31.4345,21.9958],[31.4861,22.1478],[31.4003,22.2024],[31.2092,21.9949],[24.9803,21.9958],[24.9803,22.2204],[24.9803,22.445],[24.9803,22.6695],[24.9803,22.8941],[24.9803,23.1187],[24.9803,23.3432],[24.9803,23.5678],[24.9803,23.7924],[24.9803,24.0169],[24.9803,24.2415],[24.9803,24.4661],[24.9803,24.6906],[24.9803,24.9152],[24.9803,25.1397],[24.9803,25.3643],[24.9803,25.5889],[24.9803,25.8134],[24.9803,26.038],[24.9803,26.2625],[24.9803,26.4871],[24.9803,26.7117],[24.9803,26.9362],[24.9803,27.1608],[24.9803,27.3854],[24.9803,27.61],[24.9803,27.8345],[24.9803,28.0591],[24.9803,28.2836],[24.9803,28.5082],[24.9803,28.7328],[24.9803,28.9573],[24.9803,29.1819],[24.9717,29.2238],[24.9161,29.3763],[24.8659,29.5703],[24.8108,29.8087],[24.8037,29.886],[24.7116,30.1315],[24.7032,30.2011],[24.7265,30.2506],[24.8775,30.4575],[24.923,30.558],[24.9614,30.6785],[24.9739,30.7766],[24.9295,30.9265],[24.8775,31.0612],[24.86,31.1992],[24.8527,31.3348],[24.93,31.4275],[25.0227,31.514],[25.0572,31.5672],[25.112,31.6269],[25.1505,31.655],[25.2255,31.5338],[25.3822,31.5128],[25.8933,31.6209],[27.248,31.3779],[27.54,31.2127],[28.5148,31.0504],[29.0721,30.8303],[29.4285,30.9274],[29.9298,31.2275],[30.2227,31.2584],[30.3951,31.4576],[30.9235,31.5668],[30.563,31.417],[31.0018,31.4628],[31.0829,31.6033],[31.5244,31.4583],[31.889,31.5414],[32.136,31.3411],[31.8922,31.4825],[31.7711,31.2926],[32.0085,31.2205],[32.1018,31.0928],[32.2818,31.2009],[32.2162,31.2937],[32.6033,31.0688],[33.1299,31.1682],[33.1943,31.0845],[33.6665,31.1304],[34.1981,31.3226],[34.2125,31.2923],[34.2453,31.2083],[34.3285,30.995],[34.401,30.8278],[34.4899,30.5963],[34.5178,30.5074],[34.5297,30.446],[34.6586,30.1915],[34.7351,29.982],[34.7911,29.8121],[34.8698,29.5639]]]}},{"type":"Feature","properties":{"name":"Cyrenaica","label":{"no":"Cyrenaica","en":"Cyrenaica"},"short":{"no":"Cyr.","en":"Cyr."},"side":"antonian","neighbours":["Aegyptus","Africa","Numidia"]},"geometry":{"type":"Polygon","coordinates":[[[24.9803,22.2204],[24.9803,21.9958],[24.9795,20.0026],[23.9803,19.9959],[23.9803,19.4966],[15.9841,23.4452],[14.2308,22.6185],[13.4812,23.1802],[11.9679,23.5179],[11.873,23.6948],[11.767,23.8926],[11.6242,24.1397],[11.5369,24.2908],[11.5076,24.3144],[11.1082,24.434],[10.6861,24.5514],[10.439,24.4802],[10.3959,24.4856],[10.3258,24.5302],[10.2559,24.591],[10.2187,24.6762],[10.1195,24.7902],[10.0281,25.051],[10.019,25.2585],[10.0007,25.3321],[9.7811,25.6243],[9.5813,25.8901],[9.4482,26.0671],[9.4224,26.1471],[9.4379,26.2455],[9.4914,26.3337],[9.685,26.4382],[9.8594,26.552],[9.8832,26.6308],[9.8944,26.8479],[9.8371,26.9158],[9.7954,27.0448],[9.7525,27.2193],[9.7476,27.3309],[9.8253,27.553],[9.916,27.7857],[9.8582,28.0433],[9.8156,28.5602],[9.8426,28.967],[9.8207,29.1148],[9.8053,29.177],[9.7459,29.3689],[9.6727,29.567],[9.6401,29.6364],[9.5462,29.7959],[9.391,29.9937],[9.3103,30.1152],[9.421,30.1793],[9.5188,30.2294],[9.638,30.2823],[9.8074,30.3422],[9.895,30.3873],[9.9325,30.4253],[10.0598,30.5801],[10.126,30.666],[10.2164,30.7832],[10.2561,30.8649],[10.257,30.9408],[10.2434,31.0321],[10.1727,31.251],[10.1149,31.4638],[10.1599,31.5458],[10.196,31.5851],[10.2746,31.685],[10.3061,31.7048],[10.4758,31.736],[10.5437,31.8025],[10.5955,31.8857],[10.6089,31.9295],[10.683,31.9754],[10.7716,32.0212],[10.8264,32.0807],[11.0052,32.1727],[11.1683,32.2567],[11.358,32.3452],[11.505,32.4137],[11.5359,32.4733],[11.5338,32.525],[11.4539,32.6426],[11.4539,32.7817],[11.4592,32.8974],[11.4672,32.9657],[11.5024,33.1556],[11.5046,33.1819],[12.2799,32.8585],[12.7535,32.8011],[13.2835,32.9146],[14.1557,32.7098],[14.5134,32.5111],[15.1766,32.3912],[15.3591,32.1597],[15.4964,31.6568],[15.706,31.4264],[16.123,31.2645],[16.7815,31.2147],[17.8305,30.9276],[18.1904,30.7773],[18.6698,30.4157],[19.1237,30.2661],[19.7133,30.4884],[20.1115,30.9637],[20.1411,31.1955],[19.9612,31.556],[19.9264,31.8175],[20.1215,32.2188],[20.6211,32.5802],[21.0623,32.7755],[21.4247,32.7992],[21.6359,32.9373],[22.1874,32.9183],[23.0906,32.6187],[23.1062,32.3314],[23.2863,32.2138],[23.7977,32.1587],[24.1297,32.0092],[24.8785,31.9843],[25.1505,31.655],[25.112,31.6269],[25.0572,31.5672],[25.0227,31.514],[24.93,31.4275],[24.8527,31.3348],[24.86,31.1992],[24.8775,31.0612],[24.9295,30.9265],[24.9739,30.7766],[24.9614,30.6785],[24.923,30.558],[24.8775,30.4575],[24.7265,30.2506],[24.7032,30.2011],[24.7116,30.1315],[24.8037,29.886],[24.8108,29.8087],[24.8659,29.5703],[24.9161,29.3763],[24.9717,29.2238],[24.9803,29.1819],[24.9803,28.9573],[24.9803,28.7328],[24.9803,28.5082],[24.9803,28.2836],[24.9803,28.0591],[24.9803,27.8345],[24.9803,27.61],[24.9803,27.3854],[24.9803,27.1608],[24.9803,26.9362],[24.9803,26.7117],[24.9803,26.4871],[24.9803,26.2625],[24.9803,26.038],[24.9803,25.8134],[24.9803,25.5889],[24.9803,25.3643],[24.9803,25.1397],[24.9803,24.9152],[24.9803,24.6906],[24.9803,24.4661],[24.9803,24.2415],[24.9803,24.0169],[24.9803,23.7924],[24.9803,23.5678],[24.9803,23.3432],[24.9803,23.1187],[24.9803,22.8941],[24.9803,22.6695],[24.9803,22.445],[24.9803,22.2204]]]}},{"type":"Feature","properties":{"name":"Africa","label":{"no":"Africa","en":"Africa"},"short":{"no":"Afr.","en":"Afr."},"side":"neutral","neighbours":["Cyrenaica","Numidia"]},"geometry":{"type":"MultiPolygon","coordinates":[[[[9.5188,30.2294],[9.458,30.4654],[9.4061,30.6668],[9.3633,30.8329],[9.2879,31.1253],[9.224,31.3737],[9.1603,31.6213],[9.1023,31.8461],[9.044,32.0724],[9.0189,32.1054],[8.844,32.2121],[8.6829,32.3104],[8.5151,32.4223],[8.3334,32.5436],[8.3042,32.6963],[8.2109,32.9267],[8.1125,33.0553],[8.0756,33.0891],[7.8772,33.1721],[7.7627,33.2331],[7.7313,33.2685],[7.7092,33.3623],[7.6275,33.5486],[7.5344,33.7179],[7.5002,33.8325],[7.4956,33.9765],[7.5139,34.0805],[7.5545,34.125],[7.7485,34.2545],[7.8383,34.4103],[7.9494,34.4687],[8.0456,34.5127],[8.1234,34.5639],[8.1928,34.6463],[8.2456,34.7341],[8.2547,34.829],[8.2769,34.9795],[8.3121,35.0846],[8.3942,35.2039],[8.3599,35.2996],[8.3164,35.4031],[8.329,35.5822],[8.3181,35.6549],[8.2829,35.7193],[8.2471,35.8018],[8.2457,35.8706],[8.2803,36.051],[8.3067,36.1888],[8.3487,36.368],[8.334,36.4182],[8.3027,36.4556],[8.2088,36.4951],[8.2076,36.5189],[8.2308,36.5453],[8.3696,36.6325],[8.4442,36.7607],[8.5067,36.7875],[8.6013,36.8339],[8.5977,36.8839],[8.5766,36.9372],[9.688,37.3404],[9.8385,37.309],[9.8303,37.1354],[9.8756,37.2542],[10.1964,37.2059],[10.1888,37.0339],[10.3341,36.8654],[10.2933,36.7815],[10.4123,36.7318],[10.5713,36.8794],[11.0539,37.0725],[11.1267,36.8741],[10.7981,36.4931],[10.5257,36.3233],[10.4766,36.1751],[10.5908,35.8873],[11.0043,35.6338],[11.1201,35.2403],[10.6909,34.6785],[10.1184,34.2801],[10.049,34.0563],[10.3053,33.7283],[10.4543,33.6625],[10.7132,33.689],[10.7228,33.5144],[10.8984,33.5337],[10.958,33.6263],[11.2574,33.3088],[11.2026,33.2492],[11.5046,33.1819],[11.5024,33.1556],[11.4672,32.9657],[11.4592,32.8974],[11.4539,32.7817],[11.4539,32.6426],[11.5338,32.525],[11.5359,32.4733],[11.505,32.4137],[11.358,32.3452],[11.1683,32.2567],[11.0052,32.1727],[10.8264,32.0807],[10.7716,32.0212],[10.683,31.9754],[10.6089,31.9295],[10.5955,31.8857],[10.5437,31.8025],[10.4758,31.736],[10.3061,31.7048],[10.2746,31.685],[10.196,31.5851],[10.1599,31.5458],[10.1149,31.4638],[10.1727,31.251],[10.2434,31.0321],[10.257,30.9408],[10.2561,30.8649],[10.2164,30.7832],[10.126,30.666],[10.0598,30.5801],[9.9325,30.4253],[9.895,30.3873],[9.8074,30.3422],[9.638,30.2823],[9.5188,30.2294]]],[[[10.7452,33.8887],[10.922,33.8931],[11.0336,33.805],[10.883,33.6902],[10.7221,33.7389],[10.7452,33.8887]]],[[[11.2811,34.8022],[11.1236,34.6817],[11.153,34.7446],[11.2549,34.8203],[11.2811,34.8022]]]]}},{"type":"Feature","properties":{"name":"Numidia","label":{"no":"Numidia","en":"Numidia"},"short":{"no":"Num.","en":"Num."},"side":"neutral","neighbours":["Africa","Cyrenaica","Mauretania"]},"geometry":{"type":"Polygon","coordinates":[[[11.873,23.6948],[11.9679,23.5179],[7.4817,20.8731],[5.8366,19.4792],[3.3234,18.9884],[3.1061,19.1501],[3.2559,19.4109],[3.2037,19.7897],[3.1303,19.8502],[2.4062,20.0639],[2.2193,20.2478],[1.7532,20.3316],[1.6106,20.5556],[1.1657,20.8174],[1.1455,21.1022],[-4.517,24.8045],[-8.6833,27.2859],[-8.6833,27.4902],[-8.6833,27.6564],[-8.6833,27.9004],[-8.6833,28.112],[-8.6833,28.3237],[-8.6833,28.4692],[-8.6833,28.6208],[-8.6784,28.6894],[-8.6599,28.7186],[-8.5583,28.7679],[-8.3993,28.8802],[-8.3405,28.9302],[-8.2652,28.9805],[-7.9989,29.1324],[-7.9438,29.1748],[-7.6852,29.3495],[-7.6246,29.3752],[-7.4857,29.3922],[-7.4277,29.425],[-7.3498,29.4947],[-7.2349,29.5749],[-7.1602,29.6126],[-7.1424,29.6196],[-7.0949,29.6252],[-6.8556,29.6016],[-6.7551,29.5838],[-6.6354,29.5688],[-6.5978,29.579],[-6.5657,29.6039],[-6.5206,29.6599],[-6.5107,29.726],[-6.5079,29.7838],[-6.5009,29.8091],[-6.4797,29.8204],[-6.4276,29.8161],[-6.3576,29.8083],[-6.2148,29.8107],[-6.1665,29.8189],[-6.0043,29.8313],[-5.775,29.869],[-5.5933,29.918],[-5.4488,29.9569],[-5.2937,30.0586],[-5.1801,30.1662],[-5.0619,30.3264],[-4.9683,30.4654],[-4.7785,30.5524],[-4.6196,30.6048],[-4.5292,30.6255],[-4.3229,30.6989],[-4.1488,30.8096],[-3.9854,30.9135],[-3.8601,30.9272],[-3.702,30.9445],[-3.6668,30.964],[-3.6269,31.0009],[-3.6245,31.0658],[-3.6725,31.1114],[-3.7302,31.1354],[-3.771,31.1618],[-3.8118,31.1666],[-3.8334,31.1978],[-3.8214,31.2555],[-3.8151,31.3088],[-3.7892,31.3618],[-3.7964,31.4371],[-3.8371,31.5124],[-3.8496,31.5664],[-3.8467,31.6199],[-3.8268,31.6619],[-3.7682,31.6896],[-3.7002,31.7001],[-3.6046,31.6868],[-3.4398,31.7045],[-3.0174,31.8343],[-2.9882,31.8742],[-2.9611,31.964],[-2.9309,32.0425],[-2.8872,32.0688],[-2.8634,32.0747],[-2.7226,32.0958],[-2.5232,32.1257],[-2.4484,32.13],[-2.2313,32.1213],[-2.0728,32.115],[-1.817,32.1048],[-1.6352,32.0996],[-1.4771,32.0949],[-1.2753,32.089],[-1.2259,32.1072],[-1.2259,32.1646],[-1.2621,32.2711],[-1.2403,32.3376],[-1.1626,32.3992],[-1.0655,32.4683],[-1.111,32.5523],[-1.1882,32.6085],[-1.2964,32.6757],[-1.3521,32.7034],[-1.45,32.7848],[-1.51,32.8776],[-1.5507,33.0736],[-1.6251,33.1833],[-1.6792,33.3187],[-1.6313,33.5667],[-1.703,33.7168],[-1.7141,33.7818],[-1.7147,33.8582],[-1.6927,33.9903],[-1.7069,34.1761],[-1.7918,34.3679],[-1.7519,34.4333],[-1.7333,34.467],[-1.7395,34.4961],[-1.8166,34.5571],[-1.8497,34.6073],[-1.8324,34.6546],[-1.7922,34.7232],[-1.7956,34.7519],[-1.9209,34.8355],[-2.1318,34.9708],[-2.1908,35.0298],[-2.2196,35.1042],[-1.9133,35.0942],[-1.6736,35.1831],[-1.0877,35.5789],[-0.4261,35.8615],[-0.0482,35.8328],[0.3122,36.1624],[1.2572,36.5196],[2.5934,36.6007],[2.9729,36.7845],[3.5205,36.7951],[3.779,36.8962],[4.7581,36.8963],[5.2954,36.6482],[6.0647,36.8643],[6.4865,37.0857],[6.9275,36.9194],[7.2385,36.9685],[7.2043,37.0924],[7.9104,36.8563],[8.5766,36.9372],[8.5977,36.8839],[8.6013,36.8339],[8.5067,36.7875],[8.4442,36.7607],[8.3696,36.6325],[8.2308,36.5453],[8.2076,36.5189],[8.2088,36.4951],[8.3027,36.4556],[8.334,36.4182],[8.3487,36.368],[8.3067,36.1888],[8.2803,36.051],[8.2457,35.8706],[8.2471,35.8018],[8.2829,35.7193],[8.3181,35.6549],[8.329,35.5822],[8.3164,35.4031],[8.3599,35.2996],[8.3942,35.2039],[8.3121,35.0846],[8.2769,34.9795],[8.2547,34.829],[8.2456,34.7341],[8.1928,34.6463],[8.1234,34.5639],[8.0456,34.5127],[7.9494,34.4687],[7.8383,34.4103],[7.7485,34.2545],[7.5545,34.125],[7.5139,34.0805],[7.4956,33.9765],[7.5002,33.8325],[7.5344,33.7179],[7.6275,33.5486],[7.7092,33.3623],[7.7313,33.2685],[7.7627,33.2331],[7.8772,33.1721],[8.0756,33.0891],[8.1125,33.0553],[8.2109,32.9267],[8.3042,32.6963],[8.3334,32.5436],[8.5151,32.4223],[8.6829,32.3104],[8.844,32.2121],[9.0189,32.1054],[9.044,32.0724],[9.1023,31.8461],[9.1603,31.6213],[9.224,31.3737],[9.2879,31.1253],[9.3633,30.8329],[9.4061,30.6668],[9.458,30.4654],[9.5188,30.2294],[9.421,30.1793],[9.3103,30.1152],[9.391,29.9937],[9.5462,29.7959],[9.6401,29.6364],[9.6727,29.567],[9.7459,29.3689],[9.8053,29.177],[9.8207,29.1148],[9.8426,28.967],[9.8156,28.5602],[9.8582,28.0433],[9.916,27.7857],[9.8253,27.553],[9.7476,27.3309],[9.7525,27.2193],[9.7954,27.0448],[9.8371,26.9158],[9.8944,26.8479],[9.8832,26.6308],[9.8594,26.552],[9.685,26.4382],[9.4914,26.3337],[9.4379,26.2455],[9.4224,26.1471],[9.4482,26.0671],[9.5813,25.8901],[9.7811,25.6243],[10.0007,25.3321],[10.019,25.2585],[10.0281,25.051],[10.1195,24.7902],[10.2187,24.6762],[10.2559,24.591],[10.3258,24.5302],[10.3959,24.4856],[10.439,24.4802],[10.6861,24.5514],[11.1082,24.434],[11.5076,24.3144],[11.5369,24.2908],[11.6242,24.1397],[11.767,23.8926],[11.873,23.6948]]]}},{"type":"Feature","properties":{"name":"Mauretania","label":{"no":"Mauretania","en":"Mauretania"},"short":{"no":"Maur.","en":"Maur."},"side":"neutral","neighbours":["Numidia"]},"geometry":{"type":"Polygon","coordinates":[[[-8.6833,27.4902],[-8.6833,27.2859],[-8.6822,25.9955],[-12.0163,25.9954],[-12.0234,23.4676],[-12.6204,23.2713],[-13.0315,23.0002],[-13.1533,22.8205],[-13.0162,21.3339],[-16.9646,21.3292],[-17.048,20.8062],[-17.0988,20.8569],[-16.9309,21.9],[-16.7933,22.1597],[-16.5144,22.3335],[-16.3587,22.5945],[-16.1697,23.0319],[-16.2103,23.0979],[-15.7893,23.7929],[-15.8017,23.8422],[-15.9807,23.6703],[-15.8993,23.8444],[-14.9043,24.7198],[-14.7949,25.4042],[-14.4139,26.2537],[-13.5758,26.7351],[-13.176,27.6557],[-12.9489,27.9142],[-11.9861,28.1293],[-11.5527,28.3101],[-11.081,28.7138],[-10.4865,29.0649],[-10.2006,29.3804],[-9.6671,30.1093],[-9.6529,30.4476],[-9.8755,30.7179],[-9.8087,31.4246],[-9.675,31.711],[-9.3475,32.0864],[-9.2458,32.5725],[-8.5128,33.2524],[-6.901,33.969],[-6.3531,34.7761],[-5.9248,35.7858],[-5.2778,35.9027],[-5.3376,35.7452],[-5.2527,35.6147],[-4.8372,35.2813],[-4.6283,35.2064],[-4.33,35.1615],[-3.6933,35.28],[-3.3947,35.2118],[-3.206,35.2391],[-2.9722,35.4073],[-2.8399,35.1278],[-2.2196,35.1042],[-2.1908,35.0298],[-2.1318,34.9708],[-1.9209,34.8355],[-1.7956,34.7519],[-1.7922,34.7232],[-1.8324,34.6546],[-1.8497,34.6073],[-1.8166,34.5571],[-1.7395,34.4961],[-1.7333,34.467],[-1.7519,34.4333],[-1.7918,34.3679],[-1.7069,34.1761],[-1.6927,33.9903],[-1.7147,33.8582],[-1.7141,33.7818],[-1.703,33.7168],[-1.6313,33.5667],[-1.6792,33.3187],[-1.6251,33.1833],[-1.5507,33.0736],[-1.51,32.8776],[-1.45,32.7848],[-1.3521,32.7034],[-1.2964,32.6757],[-1.1882,32.6085],[-1.111,32.5523],[-1.0655,32.4683],[-1.1626,32.3992],[-1.2403,32.3376],[-1.2621,32.2711],[-1.2259,32.1646],[-1.2259,32.1072],[-1.2753,32.089],[-1.4771,32.0949],[-1.6352,32.0996],[-1.817,32.1048],[-2.0728,32.115],[-2.2313,32.1213],[-2.4484,32.13],[-2.5232,32.1257],[-2.7226,32.0958],[-2.8634,32.0747],[-2.8872,32.0688],[-2.9309,32.0425],[-2.9611,31.964],[-2.9882,31.8742],[-3.0174,31.8343],[-3.4398,31.7045],[-3.6046,31.6868],[-3.7002,31.7001],[-3.7682,31.6896],[-3.8268,31.6619],[-3.8467,31.6199],[-3.8496,31.5664],[-3.8371,31.5124],[-3.7964,31.4371],[-3.7892,31.3618],[-3.8151,31.3088],[-3.8214,31.2555],[-3.8334,31.1978],[-3.8118,31.1666],[-3.771,31.1618],[-3.7302,31.1354],[-3.6725,31.1114],[-3.6245,31.0658],[-3.6269,31.0009],[-3.6668,30.964],[-3.702,30.9445],[-3.8601,30.9272],[-3.9854,30.9135],[-4.1488,30.8096],[-4.3229,30.6989],[-4.5292,30.6255],[-4.6196,30.6048],[-4.7785,30.5524],[-4.9683,30.4654],[-5.0619,30.3264],[-5.1801,30.1662],[-5.2937,30.0586],[-5.4488,29.9569],[-5.5933,29.918],[-5.775,29.869],[-6.0043,29.8313],[-6.1665,29.8189],[-6.2148,29.8107],[-6.3576,29.8083],[-6.4276,29.8161],[-6.4797,29.8204],[-6.5009,29.8091],[-6.5079,29.7838],[-6.5107,29.726],[-6.5206,29.6599],[-6.5657,29.6039],[-6.5978,29.579],[-6.6354,29.5688],[-6.7551,29.5838],[-6.8556,29.6016],[-7.0949,29.6252],[-7.1424,29.6196],[-7.1602,29.6126],[-7.2349,29.5749],[-7.3498,29.4947],[-7.4277,29.425],[-7.4857,29.3922],[-7.6246,29.3752],[-7.6852,29.3495],[-7.9438,29.1748],[-7.9989,29.1324],[-8.2652,28.9805],[-8.3405,28.9302],[-8.3993,28.8802],[-8.5583,28.7679],[-8.6599,28.7186],[-8.6784,28.6894],[-8.6833,28.6208],[-8.6833,28.4692],[-8.6833,28.3237],[-8.6833,28.112],[-8.6833,27.9004],[-8.6833,27.6564],[-8.6833,27.4902]]]}},{"type":"Feature","properties":{"name":"Parthia","label":{"no":"Partherriket","en":"Parthia"},"short":{"no":"Parthia","en":"Parthia"},"side":"neutral","neighbours":["Asia","Syria"],"labelAt":[33.0,45.0]},"geometry":{"type":"MultiPolygon","coordinates":[[[[55.9543,26.7011],[55.8477,26.7308],[55.4237,26.5831],[55.295,26.6392],[55.7626,26.812],[55.7576,26.9477],[55.9071,26.9098],[56.214,27.0033],[56.2794,26.9521],[56.0949,26.8012],[55.9543,26.7011]]],[[[44.8172,39.6504],[45.1412,39.2543],[45.4797,39.0063],[46.1701,38.869],[46.5548,38.9044],[47.3385,39.4239],[47.9959,39.6839],[48.3222,39.3991],[48.1044,39.2411],[48.2921,39.0188],[47.9965,38.8538],[48.5927,38.4111],[48.8687,38.4355],[48.9251,38.0151],[49.081,37.6676],[49.3725,37.52],[50.1305,37.4071],[50.3379,37.1492],[50.9274,36.8102],[51.762,36.6145],[52.1901,36.6217],[53.7677,36.9303],[53.9154,36.9303],[53.6795,36.8531],[53.9701,36.8183],[54.0238,36.9013],[53.9142,37.3436],[54.1916,37.3325],[54.6994,37.4702],[54.9001,37.7779],[55.3809,38.0511],[56.2721,38.0804],[56.4406,38.2494],[57.1936,38.2164],[57.3537,37.9733],[57.9806,37.8305],[58.2616,37.6658],[58.8154,37.6835],[59.3018,37.5106],[59.455,37.2528],[60.0628,36.9629],[60.3413,36.6376],[61.1196,36.6426],[61.212,36.1905],[61.1529,35.9768],[61.2521,35.8676],[61.2785,35.5138],[61.1,35.2723],[61.1496,35.0938],[61.0801,34.8556],[60.9512,34.6539],[60.7263,34.5183],[60.8895,34.3194],[60.6427,34.3072],[60.4857,34.0948],[60.4859,33.7119],[60.5738,33.5883],[60.917,33.5052],[60.5605,33.1378],[60.8293,32.2494],[60.8207,31.4952],[61.6602,31.3824],[61.7551,31.2853],[61.8108,30.9133],[60.8434,29.8587],[61.3184,29.3726],[61.623,28.7916],[61.8898,28.5465],[62.353,28.4147],[62.5646,28.2352],[62.758,28.2436],[62.812,27.497],[62.7527,27.2656],[63.1668,27.2525],[63.3052,27.1246],[63.1578,26.6498],[62.4393,26.561],[62.2394,26.357],[61.8424,26.2259],[61.7544,25.8434],[61.6618,25.7513],[61.5879,25.2023],[61.4122,25.1021],[60.6639,25.2822],[60.5105,25.4371],[60.4002,25.3116],[59.4561,25.4815],[59.0461,25.4173],[58.7979,25.5546],[58.2029,25.5916],[57.9366,25.6917],[57.7961,25.653],[57.7325,25.7249],[57.3346,25.7916],[57.1043,26.3714],[57.036,26.8007],[56.7281,27.1277],[56.3562,27.2002],[56.1181,27.1431],[54.7593,26.5051],[54.2471,26.6966],[53.7058,26.7256],[53.455,26.9433],[52.6916,27.3234],[52.4759,27.6165],[52.0308,27.8244],[51.5186,27.91],[51.2789,28.1313],[51.062,28.7261],[50.867,28.8702],[50.8758,29.0627],[50.6752,29.1466],[50.6496,29.4201],[50.1689,29.9212],[50.0716,30.1985],[49.5549,30.029],[49.0281,30.3334],[49.049,30.3973],[49.2473,30.4125],[49.1304,30.5094],[49.002,30.5065],[49.0371,30.4505],[48.9168,30.3973],[48.8701,30.0624],[48.4542,29.9385],[47.6437,30.0973],[47.1482,30.001],[46.9059,29.5375],[46.5314,29.0962],[44.7165,29.1936],[42.0744,31.0804],[40.3693,31.939],[39.1454,32.1245],[39.2928,32.2438],[39.2475,32.351],[39.14,32.3312],[39.0414,32.3057],[38.9816,32.4726],[39.0578,32.4932],[38.9874,32.7107],[38.9148,32.9347],[38.845,33.1509],[38.7735,33.3722],[39.0567,33.514],[39.2684,33.62],[39.5645,33.7684],[39.85,33.9114],[40.122,34.0477],[40.4215,34.1978],[40.6895,34.332],[40.9351,34.3866],[40.987,34.4291],[41.099,34.6123],[41.1947,34.769],[41.1992,34.8053],[41.1996,35.0274],[41.2164,35.2882],[41.2483,35.4275],[41.3033,35.5506],[41.3541,35.6404],[41.3594,35.7246],[41.3526,35.81],[41.3002,35.939],[41.2456,36.0734],[41.2518,36.203],[41.2618,36.2725],[41.296,36.3833],[41.3542,36.4644],[41.4168,36.5146],[41.6502,36.5664],[41.7886,36.5972],[41.974,36.7408],[42.084,36.826],[42.2373,36.9611],[42.3501,37.0606],[42.3591,37.095],[42.359,37.1086],[42.4559,37.1287],[42.6354,37.2493],[42.7411,37.3619],[42.7746,37.3719],[42.8691,37.3349],[42.9366,37.3248],[43.0925,37.3674],[43.1852,37.3449],[43.2631,37.3165],[43.3067,37.3146],[43.5158,37.2445],[43.568,37.2358],[43.6758,37.2272],[43.8364,37.2235],[43.94,37.2693],[44.0132,37.3135],[44.0646,37.3125],[44.1145,37.3019],[44.1562,37.283],[44.1918,37.2499],[44.2084,37.2026],[44.2017,37.0518],[44.2175,37.0119],[44.2457,36.9833],[44.2818,36.978],[44.3256,37.0107],[44.402,37.0585],[44.496,37.1105],[44.566,37.1583],[44.606,37.176],[44.6693,37.1736],[44.731,37.1653],[44.7651,37.1424],[44.7667,37.1563],[44.7583,37.2171],[44.7968,37.2698],[44.7941,37.2904],[44.7151,37.3571],[44.6041,37.4237],[44.574,37.4354],[44.5731,37.5064],[44.5771,37.5602],[44.5672,37.6086],[44.5461,37.6363],[44.5453,37.6582],[44.5899,37.7104],[44.5612,37.7446],[44.3978,37.8292],[44.3362,37.8718],[44.2229,37.8802],[44.2113,37.9081],[44.2289,37.9672],[44.268,38.0388],[44.3294,38.1093],[44.3489,38.1465],[44.3728,38.2097],[44.3809,38.2546],[44.4496,38.3178],[44.4499,38.3342],[44.4309,38.3568],[44.3758,38.3696],[44.3196,38.3747],[44.2985,38.3863],[44.2908,38.4201],[44.2979,38.5578],[44.2802,38.6407],[44.257,38.7006],[44.2717,38.836],[44.2324,38.8632],[44.1708,38.9344],[44.1445,38.9944],[44.1588,39.0167],[44.1719,39.0562],[44.1806,39.1081],[44.178,39.1448],[44.1213,39.1806],[44.0791,39.2183],[44.0743,39.26],[44.0575,39.3108],[44.0338,39.351],[44.0232,39.3774],[44.0439,39.393],[44.124,39.4052],[44.2404,39.3968],[44.3354,39.396],[44.3894,39.4221],[44.456,39.6667],[44.5167,39.7313],[44.5871,39.7686],[44.725,39.6817],[44.7821,39.6511],[44.8172,39.6504]]]]}},{"type":"Feature","properties":{"name":"Sicilia","label":{"no":"Sicilia","en":"Sicily"},"short":{"no":"Sic.","en":"Sic."},"side":"pompeian","neighbours":["Italia"]},"geometry":{"type":"MultiPolygon","coordinates":[[[[12.0,36.828],[12.0242,36.8209],[12.0513,36.757],[12.0033,36.746],[12.0,36.7478],[12.0,36.828]]],[[[15.2945,37.0133],[15.1424,36.8916],[15.1126,36.6878],[14.5019,36.7987],[14.2591,37.0464],[13.8006,37.1359],[12.9241,37.5705],[12.6402,37.5943],[12.4355,37.8198],[12.5477,38.0529],[12.7344,38.1831],[12.9027,38.0349],[13.2911,38.1915],[13.7889,37.9812],[15.6347,38.2676],[15.2068,37.7206],[15.1057,37.3755],[15.2945,37.0133]]],[[[15.6458,38.0342],[15.7,38.262],[15.7,37.9687],[15.6458,38.0342]]]]}}]}