{"type":"FeatureCollection","features":[{"type":"Feature","properties":{"name":"Connecticut"},"geometry":{"type":"Polygon","coordinates":[[[-73.0535,42.039],[-71.7993,42.0226],[-71.7993,41.4147],[-71.8596,41.3216],[-72.9057,41.2832],[-73.656,40.9875],[-73.7272,41.1025],[-73.4807,41.212],[-73.5519,41.2942],[-73.4862,42.05],[-73.0535,42.039]]]}},{"type":"Feature","properties":{"name":"Delaware"},"geometry":{"type":"Polygon","coordinates":[[[-75.4141,39.8045],[-75.6113,39.6182],[-75.5894,39.4594],[-75.4415,39.3115],[-75.4031,39.0651],[-75.1895,38.8077],[-75.091,38.7967],[-75.0471,38.4517],[-75.6934,38.4626],[-75.7865,39.7223],[-75.6167,39.8318],[-75.4141,39.8045]]]}},{"type":"Feature","properties":{"name":"Georgia"},"geometry":{"type":"Polygon","coordinates":[[[-83.1092,35.0012],[-83.3392,34.6835],[-83.0051,34.4699],[-82.9011,34.4863],[-82.556,33.9441],[-81.9262,33.4622],[-81.9371,33.3471],[-81.7619,33.1609],[-81.4935,33.0076],[-81.4168,32.6297],[-81.2799,32.5585],[-81.1211,32.2901],[-81.1156,32.1203],[-80.8856,32.0327],[-81.132,31.6931],[-81.2908,31.2057],[-81.4004,31.1345],[-81.4442,30.7073],[-81.9481,30.8278],[-82.0412,30.7511],[-82.0467,30.3622],[-82.1672,30.3567],[-82.2164,30.5703],[-84.8673,30.7127],[-85.1138,31.2769],[-85.0426,31.5398],[-85.1411,31.841],[-85.059,32.1367],[-84.8892,32.2627],[-85.0042,32.323],[-84.9604,32.4215],[-85.185,32.8597],[-85.6067,34.9847],[-83.1092,35.0012]]]}},{"type":"Feature","properties":{"name":"Maine"},"geometry":{"type":"Polygon","coordinates":[[[-70.7039,43.0578],[-70.9668,43.3426],[-71.0818,45.3033],[-70.6492,45.4402],[-70.7204,45.5114],[-70.3863,45.736],[-70.4191,45.7962],[-70.2603,45.8893],[-70.3096,46.0646],[-70.211,46.3275],[-70.0576,46.4151],[-69.9974,46.6944],[-69.2251,47.4612],[-69.0444,47.4284],[-69.0335,47.2421],[-68.902,47.1764],[-68.2338,47.3572],[-67.9545,47.1983],[-67.7902,47.0669],[-67.8011,45.6757],[-67.4561,45.6045],[-67.5054,45.4895],[-67.4178,45.38],[-67.489,45.2814],[-67.3466,45.128],[-67.1603,45.1609],[-66.9796,44.8049],[-67.1877,44.6461],[-67.3082,44.7063],[-67.4068,44.5968],[-67.5492,44.6242],[-67.5656,44.5311],[-67.7519,44.542],[-68.0476,44.3284],[-68.1188,44.4763],[-68.2229,44.4872],[-68.1736,44.3284],[-68.4036,44.2517],[-68.4584,44.3777],[-68.8253,44.312],[-68.8308,44.4599],[-68.9842,44.427],[-69.0718,44.0436],[-69.258,43.9231],[-69.4442,43.9669],[-69.8331,43.7205],[-69.9864,43.7424],[-70.0303,43.8519],[-70.2548,43.6767],[-70.1946,43.5671],[-70.3589,43.5288],[-70.7039,43.0578]]]}},{"type":"Feature","properties":{"name":"Maryland"},"geometry":{"type":"Polygon","coordinates":[[[-79.478,39.7223],[-75.7865,39.7223],[-75.6934,38.4626],[-75.0471,38.4517],[-75.2443,38.0299],[-75.8851,37.9094],[-75.8796,38.0737],[-75.9618,38.1395],[-75.8468,38.2107],[-76.0001,38.375],[-76.0494,38.3038],[-76.2575,38.3202],[-76.3287,38.5009],[-76.263,38.5009],[-76.1918,38.8296],[-76.2794,39.1472],[-76.1699,39.3334],[-76.0001,39.3663],[-75.9727,39.558],[-76.3671,39.3115],[-76.5588,38.7693],[-76.3835,38.3805],[-76.3616,38.0573],[-76.5916,38.2161],[-76.9202,38.2928],[-77.0188,38.4462],[-77.205,38.3585],[-77.2762,38.479],[-76.9093,38.8953],[-77.457,39.076],[-77.457,39.2239],[-77.7199,39.3225],[-77.8349,39.6018],[-78.1745,39.6949],[-78.4319,39.6237],[-78.4702,39.5142],[-78.766,39.5854],[-79.4889,39.2075],[-79.478,39.7223]]]}},{"type":"Feature","properties":{"name":"Massachusetts"},"geometry":{"type":"Polygon","coordinates":[[[-70.9175,42.888],[-70.8189,42.8715],[-70.7806,42.6963],[-70.9832,42.4224],[-70.9887,42.2691],[-70.7696,42.2472],[-70.5396,41.8145],[-70.2603,41.7159],[-69.9371,41.809],[-70.0083,41.6721],[-70.4848,41.5516],[-70.6601,41.5461],[-70.7642,41.6392],[-71.1202,41.4968],[-71.3283,41.7816],[-71.3831,42.0171],[-73.5081,42.0883],[-73.2671,42.7456],[-71.2954,42.6963],[-70.9175,42.888]]]}},{"type":"Feature","properties":{"name":"New Hampshire"},"geometry":{"type":"Polygon","coordinates":[[[-71.0818,45.3033],[-70.9668,43.3426],[-70.7039,43.0578],[-70.8189,42.8715],[-71.2954,42.6963],[-72.4565,42.7291],[-72.5442,42.8058],[-72.5332,42.9537],[-72.4456,43.0085],[-72.3799,43.5726],[-72.0293,44.0765],[-72.0348,44.3229],[-71.7007,44.416],[-71.5364,44.5858],[-71.6295,44.7501],[-71.3612,45.2704],[-71.0818,45.3033]]]}},{"type":"Feature","properties":{"name":"New Jersey"},"geometry":{"type":"Polygon","coordinates":[[[-74.2365,41.1408],[-73.9025,40.9984],[-74.0229,40.7082],[-74.1873,40.6424],[-74.2749,40.4891],[-74.001,40.4124],[-74.0996,39.7606],[-74.7952,38.9939],[-74.8883,39.1582],[-75.5346,39.4594],[-75.562,39.6292],[-74.7733,40.2152],[-75.0581,40.4179],[-75.069,40.5438],[-75.195,40.5767],[-75.206,40.6917],[-75.0526,40.867],[-75.1348,40.971],[-74.6966,41.3599],[-74.2365,41.1408]]]}},{"type":"Feature","properties":{"name":"New York"},"geometry":{"type":"Polygon","coordinates":[[[-73.3438,45.013],[-73.3876,44.6187],[-73.2945,44.4379],[-73.4369,44.0436],[-73.3493,43.7698],[-73.4041,43.6876],[-73.2452,43.5233],[-73.2671,42.7456],[-73.5081,42.0883],[-73.5519,41.2942],[-73.4807,41.212],[-73.7272,41.1025],[-73.656,40.9875],[-73.2288,40.9053],[-72.588,40.9984],[-72.2813,41.1573],[-72.2594,41.0422],[-72.1005,40.993],[-73.2397,40.626],[-73.9353,40.5438],[-74.0229,40.7082],[-73.9025,40.9984],[-74.7404,41.4311],[-74.8938,41.4366],[-75.0745,41.6064],[-75.0526,41.7542],[-75.3593,42.0007],[-79.7628,42.0007],[-79.7628,42.2691],[-78.8536,42.7839],[-79.0124,42.9866],[-79.0727,43.2604],[-78.4867,43.3754],[-77.7582,43.3426],[-77.5337,43.233],[-76.6957,43.3426],[-76.4164,43.5233],[-76.2356,43.5288],[-76.2302,43.8026],[-76.137,43.9615],[-76.3616,44.071],[-76.3123,44.197],[-75.9125,44.3667],[-75.2826,44.8487],[-74.8281,45.0185],[-73.3438,45.013]]]}},{"type":"Feature","properties":{"name":"North Carolina"},"geometry":{"type":"Polygon","coordinates":[[[-80.9787,36.5621],[-75.8687,36.5512],[-75.7537,36.1513],[-76.033,36.1897],[-76.6847,36.0089],[-76.6738,35.9377],[-75.781,35.9377],[-75.7153,35.6968],[-76.148,35.3243],[-76.4821,35.3134],[-76.5369,35.1436],[-76.2794,34.9409],[-76.493,34.6616],[-77.2105,34.6068],[-77.8294,34.1632],[-77.9718,33.8455],[-78.1799,33.9167],[-78.5414,33.851],[-79.6751,34.804],[-80.7979,34.8204],[-80.7815,34.9355],[-80.9348,35.1052],[-81.0389,35.045],[-81.0444,35.1491],[-82.2767,35.1983],[-83.1092,35.0012],[-84.3196,34.9902],[-84.2922,35.2257],[-84.095,35.2476],[-84.0184,35.4119],[-83.7719,35.5598],[-83.4981,35.5653],[-82.9942,35.7734],[-82.6382,36.0637],[-82.6108,35.9651],[-82.2164,36.1568],[-82.0357,36.1185],[-81.9097,36.3047],[-81.7235,36.354],[-81.6797,36.5895],[-80.9787,36.5621]]]}},{"type":"Feature","properties":{"name":"Pennsylvania"},"geometry":{"type":"Polygon","coordinates":[[[-79.7628,42.2526],[-79.7628,42.0007],[-75.3593,42.0007],[-75.0526,41.7542],[-75.0745,41.6064],[-74.6966,41.3599],[-75.1348,40.971],[-75.0526,40.867],[-75.206,40.6917],[-75.0581,40.4179],[-74.7733,40.2152],[-75.1457,39.8866],[-75.6167,39.8318],[-75.7865,39.7223],[-80.5186,39.7223],[-80.5186,41.9788],[-79.7628,42.2526]]]}},{"type":"Feature","properties":{"name":"Rhode Island"},"geometry":{"type":"Polygon","coordinates":[[[-71.5309,42.0171],[-71.3831,42.0171],[-71.3283,41.7816],[-71.2242,41.7104],[-71.3447,41.7269],[-71.4816,41.3709],[-71.8596,41.3216],[-71.7993,42.0062],[-71.5309,42.0171]]]}},{"type":"Feature","properties":{"name":"South Carolina"},"geometry":{"type":"Polygon","coordinates":[[[-82.7641,35.0669],[-82.2767,35.1983],[-81.0444,35.1491],[-81.0389,35.045],[-80.9348,35.1052],[-80.7815,34.9355],[-80.7979,34.8204],[-79.6751,34.804],[-78.5414,33.851],[-78.9358,33.6374],[-79.3575,33.0076],[-79.582,33.0076],[-79.6313,32.8871],[-80.8856,32.0327],[-81.1156,32.1203],[-81.1211,32.2901],[-81.2799,32.5585],[-81.4168,32.6297],[-81.4935,33.0076],[-81.7619,33.1609],[-81.9371,33.3471],[-81.9262,33.4622],[-82.556,33.9441],[-82.9011,34.4863],[-83.0051,34.4699],[-83.3392,34.6835],[-83.1092,35.0012],[-82.7641,35.0669]]]}},{"type":"Feature","properties":{"name":"Virginia"},"geometry":{"type":"MultiPolygon","coordinates":[[[[-75.3977,38.0135],[-75.2443,38.0299],[-75.5127,37.7999],[-75.803,37.1974],[-75.9727,37.1208],[-76.0275,37.2577],[-75.9399,37.5644],[-75.6715,37.9532],[-75.3977,38.0135]]],[[[-78.3497,39.4649],[-77.8294,39.1308],[-77.7199,39.3225],[-77.5665,39.3061],[-77.457,39.2239],[-77.457,39.076],[-77.1174,38.9336],[-77.0407,38.7912],[-77.3255,38.4462],[-77.2817,38.3421],[-77.0134,38.375],[-76.9641,38.2161],[-76.6135,38.1504],[-76.2356,37.8875],[-76.3616,37.6082],[-76.2466,37.3891],[-76.3835,37.2851],[-76.3999,37.1591],[-76.274,37.0824],[-76.4109,36.9619],[-76.619,37.1208],[-76.6683,37.066],[-76.4876,36.951],[-75.9946,36.9236],[-75.8687,36.5512],[-83.6733,36.6004],[-83.1366,36.7428],[-83.0709,36.8524],[-82.8792,36.8907],[-82.7203,37.1208],[-81.97,37.537],[-81.8495,37.2851],[-81.6797,37.2029],[-81.362,37.3398],[-81.2251,37.2358],[-80.9677,37.2905],[-80.2995,37.5096],[-80.294,37.6904],[-79.7244,38.364],[-79.6478,38.5941],[-79.3137,38.4133],[-78.996,38.8515],[-78.87,38.7638],[-78.4045,39.1691],[-78.3497,39.4649]]]]}},{"type":"Feature","properties":{"name":"West Virginia"},"geometry":{"type":"Polygon","coordinates":[[[-80.5186,40.637],[-80.5186,39.7223],[-79.478,39.7223],[-79.4889,39.2075],[-79.0946,39.4704],[-78.9631,39.4375],[-78.766,39.5854],[-78.4702,39.5142],[-78.4319,39.6237],[-78.1745,39.6949],[-77.8349,39.6018],[-77.7199,39.3225],[-77.8294,39.1308],[-78.3497,39.4649],[-78.4045,39.1691],[-78.87,38.7638],[-78.996,38.8515],[-79.3137,38.4133],[-79.6478,38.5941],[-79.7244,38.364],[-80.294,37.6904],[-80.2995,37.5096],[-80.9677,37.2905],[-81.2251,37.2358],[-81.362,37.3398],[-81.6797,37.2029],[-81.8495,37.2851],[-81.97,37.537],[-82.2931,37.6684],[-82.5012,37.9313],[-82.6217,38.123],[-82.5944,38.4243],[-82.3315,38.4462],[-82.2931,38.5776],[-82.1726,38.6324],[-82.2219,38.7857],[-82.0357,39.0267],[-81.8878,38.8734],[-81.6852,39.2732],[-81.5702,39.2677],[-81.4552,39.4101],[-81.3456,39.3444],[-81.2196,39.3882],[-80.8308,39.7113],[-80.6008,40.3193],[-80.6665,40.5822],[-80.5186,40.637]]]}}]}